id,name,city,state,Latitude,Longitude,C_D,Street number,Street,City,State,Country,Zip,Full_Address,,,,,,,,c_d
478,Good People Brewing Company,Birmingham, AL,33.5206608,-86.80249,Birmingham  AL,,,Birmingham,Alabama,United States,,"Birmingham, Jefferson County, Alabama, United States",,,,,,,,BirminghamAL
286,Back Forty Beer Company,Gadsden, AL,34.014264,-86.0066386,Gadsden  AL,,,Gadsden,Alabama,United States,,"Gadsden, Etowah County, Alabama, United States",,,,,,,,GadsdenAL
412,Straight to Ale,Huntsville, AL,34.7303688,-86.5861037,Huntsville  AL,,,Huntsville,Alabama,United States,,"Huntsville, Madison County, Alabama, United States",,,,,,,,HuntsvilleAL
102,King Street Brewing Company,Anchorage, AK,61.2180556,-149.9002778,Anchorage  AK,,,Anchorage,Alaska,United States,,"Anchorage, Anchorage, Alaska, United States",,,,,,,,AnchorageAK
223,Midnight Sun Brewing Company,Anchorage, AK,61.2180556,-149.9002778,Anchorage  AK,,,Anchorage,Alaska,United States,,"Anchorage, Anchorage, Alaska, United States",,,,,,,,AnchorageAK
493,Broken Tooth Brewing Company,Anchorage, AK,61.2180556,-149.9002778,Anchorage  AK,,,Anchorage,Alaska,United States,,"Anchorage, Anchorage, Alaska, United States",,,,,,,,AnchorageAK
557,Sleeping Lady Brewing Company,Anchorage, AK,61.2180556,-149.9002778,Anchorage  AK,,,Anchorage,Alaska,United States,,"Anchorage, Anchorage, Alaska, United States",,,,,,,,AnchorageAK
270,Alaskan Brewing Company,Juneau, AK,58.3019444,-134.4197221,Juneau  AK,,,Juneau,Alaska,United States,,"Juneau, Stikine Region, Juneau, Alaska, United States",,,,,,,,JuneauAK
458,Kenai River Brewing Company,Soldotna, AK,60.4877778,-151.0583332,Soldotna  AK,,,Soldotna,Alaska,United States,99669,"Soldotna, Kenai Peninsula Borough, Alaska, United States, 99669",,,,,,,,SoldotnaAK
453,Denali Brewing Company,Talkeetna, AK,62.3209046,-150.1066221,Talkeetna  AK,,,Talkeetna,Alaska,United States,99676,"Talkeetna, Matanuska-Susitna, Alaska, United States, 99676",,,,,,,,TalkeetnaAK
30,SanTan Brewing Company,Chandler, AZ,33.3061605,-111.8412502,Chandler  AZ,,,Chandler,Arizona,United States,,"Chandler, Maricopa County, Arizona, United States",,,,,,,,ChandlerAZ
158,Lumberyard Brewing Company,Flagstaff, AZ,35.1982836,-111.651302,Flagstaff  AZ,,,Flagstaff,Arizona,United States,,"Flagstaff, Coconino County, Arizona, United States",,,,,,,,FlagstaffAZ
549,Mogollon Brewing Company,Flagstaff, AZ,35.1982836,-111.651302,Flagstaff  AZ,,,Flagstaff,Arizona,United States,,"Flagstaff, Coconino County, Arizona, United States",,,,,,,,FlagstaffAZ
232,College Street Brewhouse and Pub,Lake Havasu City, AZ,34.483901,-114.3224548,Lake Havasu City  AZ,,,Lake Havasu City,Arizona,United States,,"Lake Havasu City, Mohave County, Arizona, United States",,,,,,,,LakeHavasuCityAZ
507,Mudshark Brewing Company,Lake Havasu City, AZ,34.483901,-114.3224548,Lake Havasu City  AZ,,,Lake Havasu City,Arizona,United States,,"Lake Havasu City, Mohave County, Arizona, United States",,,,,,,,LakeHavasuCityAZ
157,Phoenix Ale Brewery,Phoenix, AZ,33.4483771,-112.0740373,Phoenix  AZ,,,Phoenix,Arizona,United States,,"Phoenix, Maricopa County, Arizona, United States",,,,,,,,PhoenixAZ
548,Prescott Brewing Company,Prescott, AZ,34.5400242,-112.4685025,Prescott  AZ,,,Prescott,Arizona,United States,,"Prescott, Yavapai County, Arizona, United States",,,,,,,,PrescottAZ
160,Four Peaks Brewing Company,Tempe, AZ,33.4255104,-111.9400054,Tempe  AZ,,,Tempe,Arizona,United States,,"Tempe, Maricopa County, Arizona, United States",,,,,,,,TempeAZ
231,Borderlands Brewing Company,Tucson, AZ,32.2226066,-110.9747108,Tucson  AZ,,,Tucson,Arizona,United States,,"Tucson, Pima County, Arizona, United States",,,,,,,,TucsonAZ
251,Barrio Brewing Company,Tucson, AZ,32.2226066,-110.9747108,Tucson  AZ,,,Tucson,Arizona,United States,,"Tucson, Pima County, Arizona, United States",,,,,,,,TucsonAZ
536,Grand Canyon Brewing Company,Williams, AZ,35.2494566,-112.1910031,Williams  AZ,,,Williams,Arizona,United States,86046,"Williams, Coconino County, Arizona, United States, 86046",,,,,,,,WilliamsAZ
259,Ozark Beer Company,Rogers, AR,36.3320196,-94.1185366,Rogers  AR,,,Rogers,Arkansas,United States,,"Rogers, Benton County, Arkansas, United States",,,,,,,,RogersAR
139,Core Brewing & Distilling Company,Springdale, AR,36.1867442,-94.1288141,Springdale  AR,,,Springdale,Arkansas,United States,,"Springdale, Springdale Township, Washington County, Arkansas, United States",,,,,,,,SpringdaleAR
491,Devils Canyon Brewery,Belmont, CA,37.5202145,-122.2758008,Belmont  CA,,,Belmont,California,United States,,"Belmont, San Mateo County, California, United States",,,,,,,,BelmontCA
171,Anderson Valley Brewing Company,Boonville, CA,39.0089749,-123.3671551,Boonville  CA,,,Boonville,California,United States,,"Boonville, Mendocino County, California, United States",,,,,,,,BoonvilleCA
36,Figueroa Mountain Brewing Company,Buellton, CA,34.613597,-120.1926505,Buellton  CA,,,Buellton,California,United States,93427,"Buellton, Santa Barbara County, California, United States, 93427",,,,,,,,BuelltonCA
370,Pizza Port Brewing Company,Carlsbad, CA,33.1580933,-117.3505939,Carlsbad  CA,,,Carlsbad,California,United States,,"Carlsbad, San Diego County, California, United States",,,,,,,,CarlsbadCA
517,Butchers Brewing,Carlsbad, CA,33.1580933,-117.3505939,Carlsbad  CA,,,Carlsbad,California,United States,,"Carlsbad, San Diego County, California, United States",,,,,,,,CarlsbadCA
83,Sierra Nevada Brewing Company,Chico, CA,39.7284944,-121.8374777,Chico  CA,,,Chico,California,United States,,"Chico, Butte County, California, United States",,,,,,,,ChicoCA
320,Claremont Craft Ales,Claremont, CA,34.0966764,-117.7197785,Claremont  CA,,,Claremont,California,United States,,"Claremont, Los Angeles County, California, United States",,,,,,,,ClaremontCA
333,Davids Ale Works,Diamond Springs, CA,38.6946259,-120.8149355,Diamond Springs  CA,,,Diamond Springs,California,United States,,"Diamond Springs, El Dorado County, California, United States",,,,,,,,DiamondSpringsCA
448,Mavericks Beer Company,Half Moon Bay, CA,37.4635519,-122.4285862,Half Moon Bay  CA,,,Half Moon Bay,California,United States,,"Half Moon Bay, San Mateo County, California, United States",,,,,,,,HalfMoonBayCA
240,Golden Road Brewing,Los Angeles, CA,34.0522342,-118.2436849,Los Angeles  CA,,,Los Angeles,California,United States,,"Los Angeles, Los Angeles County, California, United States",,,,,,,,LosAngelesCA
534,Mammoth Brewing Company,Mammoth Lakes, CA,37.648546,-118.972079,Mammoth Lakes  CA,,,Mammoth Lakes,California,United States,93546,"Mammoth Lakes, Mono County, California, United States, 93546",,,,,,,,MammothLakesCA
280,Headlands Brewing Company,Mill Valley, CA,37.9060368,-122.5449763,Mill Valley  CA,,,Mill Valley,California,United States,94941,"Mill Valley, Marin County, California, United States, 94941",,,,,,,,MillValleyCA
48,Firestone Walker Brewing Company,Paso Robles, CA,35.6368759,-120.6545022,Paso Robles  CA,,,Paso Robles,California,United States,93446,"Paso Robles, San Luis Obispo County, California, United States, 93446",,,,,,,,PasoRoblesCA
476,Hangar 24 Craft Brewery,Redlands, CA,34.0555693,-117.1825381,Redlands  CA,,,Redlands,California,United States,,"Redlands, San Bernardino County, California, United States",,,,,,,,RedlandsCA
397,Ruhstaller Beer Company,Sacramento, CA,38.5815719,-121.4943996,Sacramento  CA,,,Sacramento,California,United States,,"Sacramento, Sacramento County, California, United States",,,,,,,,SacramentoCA
3,Mike Hess Brewing Company,San Diego, CA,32.715738,-117.1610838,San Diego CA,,,San Diego,California,United States,,"San Diego, San Diego County, California, United States",,,,,,,,SanDiegoCA
34,Ballast Point Brewing Company,San Diego, CA,32.715738,-117.1610838,San Diego  CA,,,San Diego,California,United States,,"San Diego, San Diego County, California, United States",,,,,,,,SanDiegoCA
98,Mission Brewery,San Diego, CA,32.715738,-117.1610838,San Diego  CA,,,San Diego,California,United States,,"San Diego, San Diego County, California, United States",,,,,,,,SanDiegoCA
209,Modern Times Beer,San Diego, CA,32.715738,-117.1610838,San Diego  CA,,,San Diego,California,United States,,"San Diego, San Diego County, California, United States",,,,,,,,SanDiegoCA
288,Saint Archer Brewery,San Diego, CA,32.715738,-117.1610838,San Diego  CA,,,San Diego,California,United States,,"San Diego, San Diego County, California, United States",,,,,,,,SanDiegoCA
423,Hess Brewing Company,San Diego, CA,32.715738,-117.1610838,San Diego  CA,,,San Diego,California,United States,,"San Diego, San Diego County, California, United States",,,,,,,,SanDiegoCA
449,TailGate Beer,San Diego, CA,32.715738,-117.1610838,San Diego  CA,,,San Diego,California,United States,,"San Diego, San Diego County, California, United States",,,,,,,,SanDiegoCA
514,Monkey Paw Pub & Brewery,San Diego, CA,32.715738,-117.1610838,San Diego  CA,,,San Diego,California,United States,,"San Diego, San Diego County, California, United States",,,,,,,,SanDiegoCA
4,Fort Point Beer Company,San Francisco, CA,37.7749295,-122.4194155,San Francisco CA,,,San Francisco,California,United States,,"San Francisco, San Francisco County, California, United States",,,,,,,,SanFranciscoCA
35,Anchor Brewing Company,San Francisco, CA,37.7749295,-122.4194155,San Francisco  CA,,,San Francisco,California,United States,,"San Francisco, San Francisco County, California, United States",,,,,,,,SanFranciscoCA
78,Speakasy Ales & Lagers,San Francisco, CA,37.7749295,-122.4194155,San Francisco  CA,,,San Francisco,California,United States,,"San Francisco, San Francisco County, California, United States",,,,,,,,SanFranciscoCA
310,Pine Street Brewery,San Francisco, CA,37.7749295,-122.4194155,San Francisco  CA,,,San Francisco,California,United States,,"San Francisco, San Francisco County, California, United States",,,,,,,,SanFranciscoCA
368,21st Amendment Brewery,San Francisco, CA,37.7749295,-122.4194155,San Francisco  CA,,,San Francisco,California,United States,,"San Francisco, San Francisco County, California, United States",,,,,,,,SanFranciscoCA
350,Central Coast Brewing Company,San Luis Obispo, CA,35.2827524,-120.6596156,San Luis Obispo  CA,,,San Luis Obispo,California,United States,,"San Luis Obispo, San Luis Obispo County, California, United States",,,,,,,,SanLuisObispoCA
252,Santa Cruz Mountain Brewing,Santa Cruz, CA,36.9741171,-122.0307963,Santa Cruz  CA,,,Santa Cruz,California,United States,,"Santa Cruz, Santa Cruz County, California, United States",,,,,,,,SantaCruzCA
432,Seabright Brewery,Santa Cruz, CA,36.9741171,-122.0307963,Santa Cruz  CA,,,Santa Cruz,California,United States,,"Santa Cruz, Santa Cruz County, California, United States",,,,,,,,SantaCruzCA
522,Uncommon Brewers,Santa Cruz, CA,36.9741171,-122.0307963,Santa Cruz  CA,,,Santa Cruz,California,United States,,"Santa Cruz, Santa Cruz County, California, United States",,,,,,,,SantaCruzCA
346,Manzanita Brewing Company,Santee, CA,32.8383828,-116.9739167,Santee  CA,,,Santee,California,United States,,"Santee, San Diego County, California, United States",,,,,,,,SanteeCA
461,Armstrong Brewing Company,South San Francisco, CA,37.654656,-122.4077498,South San Francisco  CA,,,South San Francisco,California,United States,,"South San Francisco, San Mateo County, California, United States",,,,,,,,SouthSanFranciscoCA
112,Black Market Brewing Company,Temecula, CA,33.4936391,-117.1483648,Temecula  CA,,,Temecula,California,United States,,"Temecula, Riverside County, California, United States",,,,,,,,TemeculaCA
225,Refuge Brewery,Temecula, CA,33.4936391,-117.1483648,Temecula  CA,,,Temecula,California,United States,,"Temecula, Riverside County, California, United States",,,,,,,,TemeculaCA
33,The Dudes Brewing Company,Torrance, CA,33.8358492,-118.3406288,Torrance  CA,,,Torrance,California,United States,,"Torrance, Los Angeles County, California, United States",,,,,,,,TorranceCA
555,Ukiah Brewing Company,Ukiah, CA,39.1501709,-123.2077831,Ukiah  CA,,,Ukiah,California,United States,95482,"Ukiah, Mendocino County, California, United States, 95482",,,,,,,,UkiahCA
111,Mother Earth Brew Company,Vista, CA,33.2000368,-117.2425355,Vista  CA,,,Vista,California,United States,,"Vista, San Diego County, California, United States",,,,,,,,VistaCA
148,Odyssey Beerwerks,Arvada, CO,39.8027644,-105.0874842,Arvada  CO,,,Arvada,Colorado,United States,,"Arvada, Jefferson County, Colorado, United States",,,,,,,,ArvadaCO
523,Aspen Brewing Company,Aspen, CO,39.1910983,-106.8175387,Aspen  CO,,,Aspen,Colorado,United States,81611,"Aspen, Pitkin County, Colorado, United States, 81611",,,,,,,,AspenCO
451,Dad & Dudes Breweria,Aurora, CO,39.7294319,-104.8319195,Aurora  CO,,,Aurora,Colorado,United States,,"Aurora, Arapahoe County, Colorado, United States",,,,,,,,AuroraCO
496,Dry Dock Brewing Company,Aurora, CO,39.7294319,-104.8319195,Aurora  CO,,,Aurora,Colorado,United States,,"Aurora, Arapahoe County, Colorado, United States",,,,,,,,AuroraCO
37,Avery Brewing Company,Boulder, CO,40.0149856,-105.2705456,Boulder  CO,,,Boulder,Colorado,United States,,"Boulder, Boulder County, Colorado, United States",,,,,,,,BoulderCO
51,Upslope Brewing Company,Boulder, CO,40.0149856,-105.2705456,Boulder  CO,,,Boulder,Colorado,United States,,"Boulder, Boulder County, Colorado, United States",,,,,,,,BoulderCO
405,Fate Brewing Company,Boulder, CO,40.0149856,-105.2705456,Boulder  CO,,,Boulder,Colorado,United States,,"Boulder, Boulder County, Colorado, United States",,,,,,,,BoulderCO
417,Boulder Beer Company,Boulder, CO,40.0149856,-105.2705456,Boulder  CO,,,Boulder,Colorado,United States,,"Boulder, Boulder County, Colorado, United States",,,,,,,,BoulderCO
419,Sanitas Brewing Company,Boulder, CO,40.0149856,-105.2705456,Boulder  CO,,,Boulder,Colorado,United States,,"Boulder, Boulder County, Colorado, United States",,,,,,,,BoulderCO
421,Redstone Meadery,Boulder, CO,40.0149856,-105.2705456,Boulder  CO,,,Boulder,Colorado,United States,,"Boulder, Boulder County, Colorado, United States",,,,,,,,BoulderCO
429,Asher Brewing Company,Boulder, CO,40.0149856,-105.2705456,Boulder  CO,,,Boulder,Colorado,United States,,"Boulder, Boulder County, Colorado, United States",,,,,,,,BoulderCO
472,Crystal Springs Brewing Company,Boulder, CO,40.0149856,-105.2705456,Boulder  CO,,,Boulder,Colorado,United States,,"Boulder, Boulder County, Colorado, United States",,,,,,,,BoulderCO
520,Twisted Pine Brewing Company,Boulder, CO,40.0149856,-105.2705456,Boulder  CO,,,Boulder,Colorado,United States,,"Boulder, Boulder County, Colorado, United States",,,,,,,,BoulderCO
220,Big Choice Brewing,Broomfield, CO,39.9205411,-105.0866504,Broomfield  CO,,,Broomfield,Colorado,United States,,"Broomfield, Broomfield County, Colorado, United States",,,,,,,,BroomfieldCO
369,Eddyline Brewery & Restaurant,Buena Vista, CO,38.8422178,-106.1311288,Buena Vista  CO,,,Buena Vista,Colorado,United States,81211,"Buena Vista, Chaffee County, Colorado, United States, 81211",,,,,,,,BuenaVistaCO
513,Arctic Craft Brewery,Colorado Springs, CO,38.8338816,-104.8213634,Colorado Springs  CO,,,Colorado Springs,Colorado,United States,,"Colorado Springs, El Paso County, Colorado, United States",,,,,,,,ColoradoSpringsCO
6,Great Divide Brewing Company,Denver, CO,39.7392358,-104.990251,Denver CO,,,Denver,Colorado,United States,,"Denver, Denver County, Colorado, United States",,,,,,,,DenverCO
81,Epic Brewing,Denver, CO,39.7392358,-104.990251,Denver  CO,,,Denver,Colorado,United States,,"Denver, Denver County, Colorado, United States",,,,,,,,DenverCO
110,Renegade Brewing Company,Denver, CO,39.7392358,-104.990251,Denver  CO,,,Denver,Colorado,United States,,"Denver, Denver County, Colorado, United States",,,,,,,,DenverCO
263,Denver Beer Company,Denver, CO,39.7392358,-104.990251,Denver  CO,,,Denver,Colorado,United States,,"Denver, Denver County, Colorado, United States",,,,,,,,DenverCO
294,Black Shirt Brewing Company,Denver, CO,39.7392358,-104.990251,Denver  CO,,,Denver,Colorado,United States,,"Denver, Denver County, Colorado, United States",,,,,,,,DenverCO
391,Breckenridge Brewery,Denver, CO,39.7392358,-104.990251,Denver  CO,,,Denver,Colorado,United States,,"Denver, Denver County, Colorado, United States",,,,,,,,DenverCO
424,Wynkoop Brewing Company,Denver, CO,39.7392358,-104.990251,Denver  CO,,,Denver,Colorado,United States,,"Denver, Denver County, Colorado, United States",,,,,,,,DenverCO
459,River North Brewery,Denver, CO,39.7392358,-104.990251,Denver  CO,,,Denver,Colorado,United States,,"Denver, Denver County, Colorado, United States",,,,,,,,DenverCO
135,Pug Ryans Brewery,Dillon, CO,39.6302643,-106.0433518,Dillon  CO,,,Dillon,Colorado,United States,,"Dillon, Summit County, Colorado, United States",,,,,,,,DillonCO
531,Dolores River Brewery,Dolores, CO,37.4738818,-108.5045356,Dolores  CO,,,Dolores,Colorado,United States,81323,"Dolores, Montezuma County, Colorado, United States, 81323",,,,,,,,DoloresCO
119,Steamworks Brewing Company,Durango, CO,37.27528,-107.8800667,Durango  CO,,,Durango,Colorado,United States,,"Durango, La Plata County, Colorado, United States",,,,,,,,DurangoCO
264,Ska Brewing Company,Durango, CO,37.27528,-107.8800667,Durango  CO,,,Durango,Colorado,United States,,"Durango, La Plata County, Colorado, United States",,,,,,,,DurangoCO
107,Bonfire Brewing Company,Eagle, CO,39.6552634,-106.8286507,Eagle  CO,,,Eagle,Colorado,United States,81631,"Eagle, Eagle County, Colorado, United States, 81631",,,,,,,,EagleCO
63,Crazy Mountain Brewing Company,Edwards, CO,39.644986,-106.5942,Edwards  CO,,,Edwards,Colorado,United States,81632,"Edwards, Eagle County, Colorado, United States, 81632",,,,,,,,EdwardsCO
420,Gore Range Brewery,Edwards, CO,39.644986,-106.5942,Edwards  CO,,,Edwards,Colorado,United States,81632,"Edwards, Eagle County, Colorado, United States, 81632",,,,,,,,EdwardsCO
452,Centennial Beer Company,Edwards, CO,39.644986,-106.5942,Edwards  CO,,,Edwards,Colorado,United States,81632,"Edwards, Eagle County, Colorado, United States, 81632",,,,,,,,EdwardsCO
82,New Belgium Brewing Company,Fort Collins, CO,40.5852602,-105.084423,Fort Collins  CO,,,Fort Collins,Colorado,United States,,"Fort Collins, Larimer County, Colorado, United States",,,,,,,,FortCollinsCO
441,Pateros Creek Brewing Company,Fort Collins, CO,40.5852602,-105.084423,Fort Collins  CO,,,Fort Collins,Colorado,United States,,"Fort Collins, Larimer County, Colorado, United States",,,,,,,,FortCollinsCO
462,AC Golden Brewing Company,Golden, CO,39.755543,-105.2210997,Golden  CO,,,Golden,Colorado,United States,,"Golden, Jefferson County, Colorado, United States",,,,,,,,GoldenCO
515,Crabtree Brewing Company,Greeley, CO,40.4233142,-104.7091322,Greeley  CO,,,Greeley,Colorado,United States,,"Greeley, Weld County, Colorado, United States",,,,,,,,GreeleyCO
291,Tommyknocker Brewery,Idaho Springs, CO,39.7424881,-105.5136081,Idaho Springs  CO,,,Idaho Springs,Colorado,United States,,"Idaho Springs, Clear Creek County, Colorado, United States",,,,,,,,IdahoSpringsCO
104,Lone Tree Brewing Company,Lone Tree, CO,39.536482,-104.8970678,Lone Tree  CO,,,Lone Tree,Colorado,United States,,"Lone Tree, Douglas County, Colorado, United States",,,,,,,,LoneTreeCO
166,Oskar Blues Brewery,Longmont, CO,40.1672068,-105.1019275,Longmont  CO,,,Longmont,Colorado,United States,,"Longmont, Boulder County, Colorado, United States",,,,,,,,LongmontCO
144,Grimm Brothers Brewhouse,Loveland, CO,40.3977612,-105.0749801,Loveland  CO,,,Loveland,Colorado,United States,,"Loveland, Larimer County, Colorado, United States",,,,,,,,LovelandCO
503,Oskar Blues Brewery,Lyons, CO,40.2247075,-105.271378,Lyons  CO,,,Lyons,Colorado,United States,,"Lyons, Boulder County, Colorado, United States",,,,,,,,LyonsCO
355,Pikes Peak Brewing Company,Monument, CO,39.0916586,-104.872758,Monument  CO,,,Monument,Colorado,United States,,"Monument, El Paso County, Colorado, United States",,,,,,,,MonumentCO
341,Palisade Brewing Company,Palisade, CO,39.1102587,-108.3509193,Palisade  CO,,,Palisade,Colorado,United States,81526,"Palisade, Mesa County, Colorado, United States, 81526",,,,,,,,PalisadeCO
386,Revolution Brewing,Paonia, CO,38.8683204,-107.5920017,Paonia  CO,,,Paonia,Colorado,United States,81428,"Paonia, Delta County, Colorado, United States, 81428",,,,,,,,PaoniaCO
551,Silverton Brewery,Silverton, CO,37.811941,-107.6645057,Silverton  CO,,,Silverton,Colorado,United States,81433,"Silverton, San Juan County, Colorado, United States, 81433",,,,,,,,SilvertonCO
480,Telluride Brewing Company,Telluride, CO,37.9374939,-107.8122852,Telluride  CO,,,Telluride,Colorado,United States,81435,"Telluride, San Miguel County, Colorado, United States, 81435",,,,,,,,TellurideCO
168,High Hops Brewery,Windsor, CO,40.4774818,-104.9013617,Windsor  CO,,,Windsor,Colorado,United States,,"Windsor, Weld County, Colorado, United States",,,,,,,,WindsorCO
108,Thomas Hooker Brewing Company,Bloomfield, CT,41.826488,-72.7300945,Bloomfield  CT,,,Bloomfield,Connecticut,United States,,"Bloomfield, Simsbury, Hartford County, Connecticut, United States",,,,,,,,BloomfieldCT
235,Back East Brewing Company,Bloomfield, CT,41.826488,-72.7300945,Bloomfield  CT,,,Bloomfield,Connecticut,United States,,"Bloomfield, Simsbury, Hartford County, Connecticut, United States",,,,,,,,BloomfieldCT
89,Broad Brook Brewing LLC,East Windsor, CT,41.9161361,-72.5578799,East Windsor  CT,,,East Windsor,Connecticut,United States,,"East Windsor, Hartford County, Connecticut, United States",,,,,,,,EastWindsorCT
512,Cottrell Brewing,Pawcatuck, CT,41.3773218,-71.8336802,Pawcatuck  CT,,,Stonington,Connecticut,United States,6379,"Pawcatuck, Stonington, Stonington, New London County, Connecticut, United States, 06379",,,,,,,,PawcatuckCT
248,Half Full Brewery,Stamford, CT,41.0534302,-73.5387341,Stamford  CT,,,Stamford,Connecticut,United States,,"Stamford, Fairfield County, Connecticut, United States",,,,,,,,StamfordCT
435,Two Roads Brewing Company,Stratford, CT,41.1845415,-73.1331651,Stratford  CT,,,Stratford,Connecticut,United States,,"Stratford, Fairfield County, Connecticut, United States",,,,,,,,StratfordCT
130,Shebeen Brewing Company,Wolcott, CT,41.6023196,-72.9867718,Wolcott  CT,,,Wolcott,Connecticut,United States,6716,"Wolcott, New Haven County, Connecticut, United States, 06716",,,,,,,,WolcottCT
410,New England Brewing Company,Woodbridge, CT,41.352597,-73.0084385,Woodbridge  CT,,,Woodbridge,Connecticut,United States,6525,"Woodbridge, New Haven County, Connecticut, United States, 06525",,,,,,,,WoodbridgeCT
539,Twin Lakes Brewing Company,Greenville, DE,39.7790012,-75.5982599,Greenville  DE,,,Greenville,Delaware,United States,19807,"Greenville, New Castle County, Delaware, United States, 19807",,,,,,,,GreenvilleDE
316,Iron Hill Brewery & Restaurant,Wilmington, DE,39.7390721,-75.5397878,Wilmington  DE,,,Wilmington,Delaware,United States,,"Wilmington, New Castle County, Delaware, United States",,,,,,,,WilmingtonDE
227,DC Brau Brewing Company,Washington, DC,38.9071923,-77.0368707,Washington  DC,,,Washington,District of Columbia,United States,,"Washington, District of Columbia, District of Columbia, United States",,,,,,,,WashingtonDC
340,Due South Brewing Company,Boynton Beach, FL,26.5317866,-80.0905465,Boynton Beach  FL,,,Boynton Beach,Florida,United States,,"Boynton Beach, Palm Beach County, Florida, United States",,,,,,,,BoyntonBeachFL
373,7venth Sun,Dunedin, FL,28.0197404,-82.7717684,Dunedin  FL,,,Dunedin,Florida,United States,,"Dunedin, Pinellas County, Florida, United States",,,,,,,,DunedinFL
447,Swamp Head Brewery,Gainesville, FL,29.6516344,-82.3248262,Gainesville  FL,,,Gainesville,Florida,United States,,"Gainesville, Alachua County, Florida, United States",,,,,,,,GainesvilleFL
378,Bold City Brewery,Jacksonville, FL,30.3321838,-81.655651,Jacksonville  FL,,,Jacksonville,Florida,United States,,"Jacksonville, Duval County, Florida, United States",,,,,,,,JacksonvilleFL
466,Green Room Brewing,Jacksonville, FL,30.3321838,-81.655651,Jacksonville  FL,,,Jacksonville,Florida,United States,,"Jacksonville, Duval County, Florida, United States",,,,,,,,JacksonvilleFL
527,Intuition Ale Works,Jacksonville, FL,30.3321838,-81.655651,Jacksonville  FL,,,Jacksonville,Florida,United States,,"Jacksonville, Duval County, Florida, United States",,,,,,,,JacksonvilleFL
465,Engine 15 Brewing,Jacksonville Beach, FL,30.2841224,-81.3961338,Jacksonville Beach  FL,,,Jacksonville Beach,Florida,United States,,"Jacksonville Beach, Duval County, Florida, United States",,,,,,,,JacksonvilleBeachFL
393,Miami Brewing Company,Miami, FL,25.7616798,-80.1917902,Miami  FL,,,Miami,Florida,United States,,"Miami, Miami-Dade County, Florida, United States",,,,,,,,MiamiFL
221,Big Storm Brewing Company,Odessa, FL,28.1793926,-82.5579537,Odessa  FL,,,Odessa,Florida,United States,,"Odessa, Pasco County, Florida, United States",,,,,,,,OdessaFL
243,Two Henrys Brewing Company,Plant City, FL,28.0186323,-82.1128641,Plant City  FL,,,Plant City,Florida,United States,,"Plant City, Hillsborough County, Florida, United States",,,,,,,,PlantCityFL
67,3 Daughters Brewing,St Petersburg, FL,27.7676008,-82.6402915,St Petersburg  FL,,,Saint Petersburg,Florida,United States,,"Saint Petersburg, Pinellas County, Florida, United States",,,,,,,,StPetersburgFL
141,Cigar City Brewing Company,Tampa, FL,27.950575,-82.4571776,Tampa  FL,,,Tampa,Florida,United States,,"Tampa, Hillsborough County, Florida, United States",,,,,,,,TampaFL
308,Brew Bus Brewing,Tampa, FL,27.950575,-82.4571776,Tampa  FL,,,Tampa,Florida,United States,,"Tampa, Hillsborough County, Florida, United States",,,,,,,,TampaFL
490,Tampa Bay Brewing Company,Tampa, FL,27.950575,-82.4571776,Tampa  FL,,,Tampa,Florida,United States,,"Tampa, Hillsborough County, Florida, United States",,,,,,,,TampaFL
467,Brindle Dog Brewing Company,Tampa Bay, FL,27.763383,-82.5436722,Tampa Bay  FL,,,Tampa Bay,Florida,United States,,"Tampa Bay, Florida, United States",,,,,,,,TampaBayFL
247,Creature Comforts,Athens, GA,33.9519347,-83.357567,Athens  GA,,,Athens,Georgia,United States,,"Athens, Clarke County, Georgia, United States",,,,,,,,AthensGA
469,Terrapin Brewing Company,Athens, GA,33.9519347,-83.357567,Athens  GA,,,Athens,Georgia,United States,,"Athens, Clarke County, Georgia, United States",,,,,,,,AthensGA
49,SweetWater Brewing Company,Atlanta, GA,33.7489954,-84.3879824,Atlanta  GA,,,Atlanta,Georgia,United States,,"Atlanta, Fulton County, Georgia, United States",,,,,,,,AtlantaGA
216,Orpheus Brewing,Atlanta, GA,33.7489954,-84.3879824,Atlanta  GA,,,Atlanta,Georgia,United States,,"Atlanta, Fulton County, Georgia, United States",,,,,,,,AtlantaGA
400,Macon Beer Company,Macon, GA,32.8406946,-83.6324022,Macon  GA,,,Macon,Georgia,United States,,"Macon, Bibb County, Georgia, United States",,,,,,,,MaconGA
475,Red Hare Brewing Company,Marietta, GA,33.952602,-84.5499327,Marietta  GA,,,Marietta,Georgia,United States,,"Marietta, Cobb County, Georgia, United States",,,,,,,,MariettaGA
415,Coastal Empire Beer Company,Savannah, GA,32.0808989,-81.091203,Savannah  GA,,,Savannah,Georgia,United States,,"Savannah, Chatham County, Georgia, United States",,,,,,,,SavannahGA
203,Mehana Brewing Co.,Hilo, HI,19.7241106,-155.0868193,Hilo  HI,,,Hilo,Hawaii,United States,96720,"Hilo, Hawaii County, Hawaii, United States, 96720",,,,,,,,HiloHI
204,Hawaii Nui Brewing Co.,Hilo, HI,19.7241106,-155.0868193,Hilo  HI,,,Hilo,Hawaii,United States,96720,"Hilo, Hawaii County, Hawaii, United States, 96720",,,,,,,,HiloHI
439,Kona Brewing Company,Kona, HI,19.639994,-155.9969261,Kona  HI,,,Kailua-Kona,Hawaii,United States,,"Kailua-Kona, North Kona, Hawaii County, Hawaii, United States",,,,,,,,KonaHI
375,Maui Brewing Company,Lahaina, HI,20.8783333,-156.6825,Lahaina  HI,,,Lahaina,Hawaii,United States,,"Lahaina, Maui County, Hawaii, United States",,,,,,,,LahainaHI
309,Sockeye Brewing Company,Boise, ID,43.6150186,-116.2023137,Boise  ID,,,Boise,Idaho,United States,,"Boise, Ada County, Idaho, United States",,,,,,,,BoiseID
169,Crooked Fence Brewing Company,Garden City, ID,43.6221108,-116.2381744,Garden City  ID,,,Garden City,Idaho,United States,,"Garden City, Ada County, Idaho, United States",,,,,,,,GardenCityID
307,Payette Brewing Company,Garden City, ID,43.6221108,-116.2381744,Garden City  ID,,,Garden City,Idaho,United States,,"Garden City, Ada County, Idaho, United States",,,,,,,,GardenCityID
313,Slanted Rock Brewing Company,Meridian, ID,43.6121087,-116.3915131,Meridian  ID,,,Meridian,Idaho,United States,,"Meridian, Ada County, Idaho, United States",,,,,,,,MeridianID
218,Laughing Dog Brewing Company,Ponderay, ID,48.3054806,-116.5338037,Ponderay  ID,,,Ponderay,Idaho,United States,,"Ponderay, Bonner County, Idaho, United States",,,,,,,,PonderayID
57,Destihl Brewery,Bloomington, IL,40.4842027,-88.9936873,Bloomington  IL,,,Bloomington,Illinois,United States,,"Bloomington, McLean County, Illinois, United States",,,,,,,,BloomingtonIL
44,Revolution Brewing Company,Chicago, IL,41.8781136,-87.6297982,Chicago  IL,,,Chicago,Illinois,United States,,"Chicago, Cook County, Illinois, United States",,,,,,,,ChicagoIL
52,Pipeworks Brewing Company,Chicago, IL,41.8781136,-87.6297982,Chicago  IL,,,Chicago,Illinois,United States,,"Chicago, Cook County, Illinois, United States",,,,,,,,ChicagoIL
64,SlapShot Brewing Company,Chicago, IL,41.8781136,-87.6297982,Chicago  IL,,,Chicago,Illinois,United States,,"Chicago, Cook County, Illinois, United States",,,,,,,,ChicagoIL
65,Mikerphone Brewing,Chicago, IL,41.8781136,-87.6297982,Chicago  IL,,,Chicago,Illinois,United States,,"Chicago, Cook County, Illinois, United States",,,,,,,,ChicagoIL
88,Goose Island Brewing Company,Chicago, IL,41.8781136,-87.6297982,Chicago  IL,,,Chicago,Illinois,United States,,"Chicago, Cook County, Illinois, United States",,,,,,,,ChicagoIL
175,Spiteful Brewing Company,Chicago, IL,41.8781136,-87.6297982,Chicago  IL,,,Chicago,Illinois,United States,,"Chicago, Cook County, Illinois, United States",,,,,,,,ChicagoIL
196,Goose Island Brewery Company,Chicago, IL,41.8781136,-87.6297982,Chicago  IL,,,Chicago,Illinois,United States,,"Chicago, Cook County, Illinois, United States",,,,,,,,ChicagoIL
256,Finchs Beer Company,Chicago, IL,41.8781136,-87.6297982,Chicago  IL,,,Chicago,Illinois,United States,,"Chicago, Cook County, Illinois, United States",,,,,,,,ChicagoIL
327,Half Acre Beer Company,Chicago, IL,41.8781136,-87.6297982,Chicago  IL,,,Chicago,Illinois,United States,,"Chicago, Cook County, Illinois, United States",,,,,,,,ChicagoIL
210,Temperance Beer Company,Evanston, IL,42.0450722,-87.6876969,Evanston  IL,,,Evanston,Illinois,United States,,"Evanston, Evanston Township, Cook County, Illinois, United States",,,,,,,,EvanstonIL
361,Wild Onion Brewing Company,Lake Barrington, IL,42.2122015,-88.167149,Lake Barrington  IL,,,Lake Barrington,Illinois,United States,,"Lake Barrington, Cuba Township, Lake County, Illinois, United States",,,,,,,,LakeBarringtonIL
55,Pollyanna Brewing Company,Lemont, IL,41.673642,-88.0017261,Lemont  IL,,,Lemont,Illinois,United States,,"Lemont, Lemont Township, Cook County, Illinois, United States",,,,,,,,LemontIL
552,Mickey Finns Brewery,Libertyville, IL,42.2830786,-87.9531303,Libertyville  IL,,,Libertyville,Illinois,United States,,"Libertyville, Libertyville Township, Lake County, Illinois, United States",,,,,,,,LibertyvilleIL
54,Flesk Brewing Company,Lombard, IL,41.8800296,-88.0078435,Lombard  IL,,,Lombard,Illinois,United States,,"Lombard, York Township, DuPage County, Illinois, United States",,,,,,,,LombardIL
56,BuckleDown Brewing,Lyons, IL,41.8133651,-87.8181128,Lyons  IL,,,Lyons,Illinois,United States,,"Lyons, Lyons Township, Cook County, Illinois, United States",,,,,,,,LyonsIL
40,Big Muddy Brewing,Murphysboro, IL,37.7644952,-89.3350888,Murphysboro  IL,,,Murphysboro,Illinois,United States,62966,"Murphysboro, Murphysboro Township, Jackson County, Illinois, United States, 62966",,,,,,,,MurphysboroIL
74,Two Brothers Brewing Company,Warrenville, IL,41.817807,-88.1734021,Warrenville  IL,,,Warrenville,Illinois,United States,,"Warrenville, Winfield Township, DuPage County, Illinois, United States",,,,,,,,WarrenvilleIL
250,Chapmans Brewing,Angola, IN,41.6347726,-84.9994088,Angola  IN,,,Angola,Indiana,United States,46703,"Angola, Pleasant Township, Steuben County, Indiana, United States, 46703",,,,,,,,AngolaIN
165,Great Crescent Brewery,Aurora, IN,39.0570022,-84.9013402,Aurora  IN,,,Aurora,Indiana,United States,,"Aurora, Center Township, Dearborn County, Indiana, United States",,,,,,,,AuroraIN
315,Cutters Brewing Company,Avon, IN,39.7628227,-86.3997167,Avon  IN,,,Avon,Indiana,United States,,"Avon, Washington Township, Hendricks County, Indiana, United States",,,,,,,,AvonIN
28,Taxman Brewing Company,Bargersville, IN,39.5208818,-86.1677657,Bargersville  IN,,,Bargersville,Indiana,United States,,"Bargersville, White River Township, Johnson County, Indiana, United States",,,,,,,,BargersvilleIN
202,Upland Brewing Company,Bloomington, IN,39.165325,-86.5263857,Bloomington  IN,,,Bloomington,Indiana,United States,,"Bloomington, Monroe County, Indiana, United States",,,,,,,,BloomingtonIN
27,450 North Brewing Company,Columbus, IN,39.2014404,-85.9213796,Columbus  IN,,,Columbus,Indiana,United States,,"Columbus, Columbus Township, Bartholomew County, Indiana, United States",,,,,,,,ColumbusIN
17,Tin Man Brewing Company,Evansville, IN,37.9715592,-87.5710898,Evansville  IN,,,Evansville,Indiana,United States,,"Evansville, Vanderburgh County, Indiana, United States",,,,,,,,EvansvilleIN
506,Warbird Brewing Company,Fort Wayne, IN,41.079273,-85.1393513,Fort Wayne  IN,,,Fort Wayne,Indiana,United States,,"Fort Wayne, Allen County, Indiana, United States",,,,,,,,FortWayneIN
177,18th Street Brewery,Gary, IN,41.5933696,-87.3464271,Gary  IN,,,Gary,Indiana,United States,,"Gary, Calumet Township, Lake County, Indiana, United States",,,,,,,,GaryIN
20,Bare Hands Brewery,Granger, IN,41.7533819,-86.1108377,Granger  IN,,,Granger,Indiana,United States,,"Granger, St. Joseph County, Indiana, United States",,,,,,,,GrangerIN
16,Flat 12 Bierwerks,Indianapolis, IN,39.768403,-86.158068,Indianapolis  IN,,,Indianapolis,Indiana,United States,,"Indianapolis, Marion County, Indiana, United States",,,,,,,,IndianapolisIN
18,Black Acre Brewing Co.,Indianapolis, IN,39.768403,-86.158068,Indianapolis  IN,,,Indianapolis,Indiana,United States,,"Indianapolis, Marion County, Indiana, United States",,,,,,,,IndianapolisIN
23,Indiana City Brewing,Indianapolis, IN,39.768403,-86.158068,Indianapolis  IN,,,Indianapolis,Indiana,United States,,"Indianapolis, Marion County, Indiana, United States",,,,,,,,IndianapolisIN
25,Sun King Brewing Company,Indianapolis, IN,39.768403,-86.158068,Indianapolis  IN,,,Indianapolis,Indiana,United States,,"Indianapolis, Marion County, Indiana, United States",,,,,,,,IndianapolisIN
205,Peoples Brewing Company,Lafayette, IN,40.4167022,-86.8752869,Lafayette  IN,,,Lafayette,Indiana,United States,,"Lafayette, Tippecanoe County, Indiana, United States",,,,,,,,LafayetteIN
21,Three Pints Brewing,Martinsville, IN,39.4278253,-86.4283279,Martinsville  IN,,,Martinsville,Indiana,United States,46151,"Martinsville, Washington Township, Morgan County, Indiana, United States, 46151",,,,,,,,MartinsvilleIN
24,Burn Em Brewing,Michigan City, IN,41.7075394,-86.8950297,Michigan City  IN,,,Michigan City,Indiana,United States,,"Michigan City, Michigan, LaPorte County, Indiana, United States",,,,,,,,MichiganCityIN
26,Evil Czech Brewery,Mishawaka, IN,41.6619927,-86.1586156,Mishawaka  IN,,,Mishawaka,Indiana,United States,,"Mishawaka, Penn Township, St. Joseph County, Indiana, United States",,,,,,,,MishawakaIN
19,Brew Link Brewing,Plainfield, IN,39.7042123,-86.3994387,Plainfield  IN,,,Plainfield,Indiana,United States,,"Plainfield, Guilford Township, Hendricks County, Indiana, United States",,,,,,,,PlainfieldIN
358,Daredevil Brewing Company,Shelbyville, IN,39.5214373,-85.7769238,Shelbyville  IN,,,Shelbyville,Indiana,United States,46176,"Shelbyville, Addison Township, Shelby County, Indiana, United States, 46176",,,,,,,,ShelbyvilleIN
348,Four Horsemen Brewing Company,South Bend, IN,41.6763545,-86.2519898,South Bend  IN,,,South Bend,Indiana,United States,,"South Bend, St. Joseph County, Indiana, United States",,,,,,,,SouthBendIN
22,Four Fathers Brewing ,Valparaiso, IN,41.4730948,-87.0611412,Valparaiso  IN,,,Valparaiso,Indiana,United States,,"Valparaiso, Center Township, Porter County, Indiana, United States",,,,,,,,ValparaisoIN
365,Great River Brewery,Davenport, IA,41.5236437,-90.5776367,Davenport  IA,,,Davenport,Iowa,United States,,"Davenport, Scott County, Iowa, United States",,,,,,,,DavenportIA
482,Confluence Brewing Company,Des Moines, IA,41.6005448,-93.6091064,Des Moines  IA,,,Des Moines,Iowa,United States,,"Des Moines, Polk County, Iowa, United States",,,,,,,,DesMoinesIA
208,Kalona Brewing Company,Kalona, IA,41.4830723,-91.7060015,Kalona  IA,,,Kalona,Iowa,United States,52247,"Kalona, English River, Washington County, Iowa, United States, 52247",,,,,,,,KalonaIA
468,Peace Tree Brewing Company,Knoxville, IA,41.320343,-93.09967,Knoxville  IA,,,Knoxville,Iowa,United States,50138,"Knoxville, Knoxville, Marion County, Iowa, United States, 50138",,,,,,,,KnoxvilleIA
471,Okoboji Brewing Company,Spirit Lake, IA,43.4226192,-95.1022313,Spirit Lake  IA,,,Spirit Lake,Iowa,United States,51360,"Spirit Lake, Center Grove, Dickinson County, Iowa, United States, 51360",,,,,,,,SpiritLakeIA
283,Defiance Brewing Company,Hays, KS,38.8791783,-99.3267702,Hays  KS,,,Hays,Kansas,United States,67601,"Hays, Big Creek, Ellis County, Kansas, United States, 67601",,,,,,,,HaysKS
500,High Noon Saloon And Brewery,Leavenworth, KS,39.3111112,-94.9224637,Leavenworth  KS,,,Leavenworth,Kansas,United States,,"Leavenworth, Leavenworth County, Kansas, United States",,,,,,,,LeavenworthKS
45,Tallgrass Brewing Company,Manhattan, KS,39.1836082,-96.5716694,Manhattan  KS,,,Manhattan,Kansas,United States,,"Manhattan, Riley County, Kansas, United States",,,,,,,,ManhattanKS
100,West Sixth Brewing,Lexington, KY,38.0405837,-84.5037164,Lexington  KY,,,Lexington,Kentucky,United States,,"Lexington, Fayette County, Kentucky, United States",,,,,,,,LexingtonKY
388,Alltechs Lexington Brewing Company,Lexington, KY,38.0405837,-84.5037164,Lexington  KY,,,Lexington,Kentucky,United States,,"Lexington, Fayette County, Kentucky, United States",,,,,,,,LexingtonKY
1,Against the Grain Brewery,Louisville, KY,38.2526647,-85.7584557,Louisville KY,,,Louisville,Kentucky,United States,,"Louisville, Jefferson County, Kentucky, United States",,,,,,,,LouisvilleKY
62,Against The Grain Brewery,Louisville, KY,38.2526647,-85.7584557,Louisville  KY,,,Louisville,Kentucky,United States,,"Louisville, Jefferson County, Kentucky, United States",,,,,,,,LouisvilleKY
533,Abita Brewing Company,Abita Springs, LA,30.4785257,-90.0375755,Abita Springs  LA,,,Abita Springs,Louisiana,United States,70420,"Abita Springs, St. Tammany Parish, Louisiana, United States, 70420",,,,,,,,AbitaSpringsLA
152,Tin Roof Brewing Company,Baton Rouge, LA,30.4514677,-91.1871466,Baton Rouge  LA,,,Baton Rouge,Louisiana,United States,,"Baton Rouge, East Baton Rouge Parish, Louisiana, United States",,,,,,,,BatonRougeLA
553,Covington Brewhouse,Covington, LA,30.4754702,-90.1009108,Covington  LA,,,Covington,Louisiana,United States,,"Covington, St. Tammany Parish, Louisiana, United States",,,,,,,,CovingtonLA
174,New Orleans Lager & Ale Brewing Company,New Orleans, LA,29.9510658,-90.0715323,New Orleans  LA,,,New Orleans,Louisiana,United States,,"New Orleans, Orleans Parish, Louisiana, United States",,,,,,,,NewOrleansLA
269,Great Raft Brewing Company,Shreveport, LA,32.5251516,-93.7501789,Shreveport  LA,,,Shreveport,Louisiana,United States,,"Shreveport, Caddo Parish, Louisiana, United States",,,,,,,,ShreveportLA
317,Marshall Wharf Brewing Company,Belfast, ME,44.4259092,-69.0064234,Belfast  ME,,,Belfast,Maine,United States,4915,"Belfast, Waldo County, Maine, United States, 04915",,,,,,,,BelfastME
292,Baxter Brewing Company,Lewiston, ME,44.100351,-70.2147764,Lewiston  ME,,,Lewiston,Maine,United States,,"Lewiston, Androscoggin County, Maine, United States",,,,,,,,LewistonME
106,Glabrous Brewing Company,Pineland, ME,43.962853,-70.2825536,Pineland  ME,,,New Gloucester,Maine,United States,,"New Gloucester, Cumberland County, Maine, United States",,,,,,,,PinelandME
42,Rising Tide Brewing Company,Portland, ME,43.6590993,-70.2568189,Portland  ME,,,Portland,Maine,United States,,"Portland, Cumberland County, Maine, United States",,,,,,,,PortlandME
266,Peak Organic Brewing Company,Portland, ME,43.6590993,-70.2568189,Portland  ME,,,Portland,Maine,United States,,"Portland, Cumberland County, Maine, United States",,,,,,,,PortlandME
323,D.L. Geary Brewing Company,Portland, ME,43.6590993,-70.2568189,Portland  ME,,,Portland,Maine,United States,,"Portland, Cumberland County, Maine, United States",,,,,,,,PortlandME
385,Shipyard Brewing Company,Portland, ME,43.6590993,-70.2568189,Portland  ME,,,Portland,Maine,United States,,"Portland, Cumberland County, Maine, United States",,,,,,,,PortlandME
492,Stone Coast Brewing Company,Portland, ME,43.6590993,-70.2568189,Portland  ME,,,Portland,Maine,United States,,"Portland, Cumberland County, Maine, United States",,,,,,,,PortlandME
502,Sea Dog Brewing Company,Portland, ME,43.6590993,-70.2568189,Portland  ME,,,Portland,Maine,United States,,"Portland, Cumberland County, Maine, United States",,,,,,,,PortlandME
71,Union Craft Brewing,Baltimore, MD,39.2903848,-76.6121893,Baltimore  MD,,,Baltimore,Maryland,United States,,"Baltimore, Maryland, United States",,,,,,,,BaltimoreMD
255,Stillwater Artisanal Ales,Baltimore, MD,39.2903848,-76.6121893,Baltimore  MD,,,Baltimore,Maryland,United States,,"Baltimore, Maryland, United States",,,,,,,,BaltimoreMD
262,The Brewers Art,Baltimore, MD,39.2903848,-76.6121893,Baltimore  MD,,,Baltimore,Maryland,United States,,"Baltimore, Maryland, United States",,,,,,,,BaltimoreMD
521,Flying Dog Brewery,Frederick, MD,39.4142688,-77.4105409,Frederick  MD,,,Frederick,Maryland,United States,,"Frederick, 2, Frederick, Frederick County, Maryland, United States",,,,,,,,FrederickMD
479,Heavy Seas Beer,Halethorpe, MD,39.2401735,-76.6806441,Halethorpe  MD,,,Halethorpe,Maryland,United States,21227,"Halethorpe, 13, Baltimore County, Maryland, United States, 21227",,,,,,,,HalethorpeMD
114,Jailbreak Brewing Company,Laurel, MD,39.0992752,-76.8483061,Laurel  MD,,,Laurel,Maryland,United States,,"Laurel, 10, Laurel, Prince George's County, Maryland, United States",,,,,,,,LaurelMD
68,Red Shedman Farm Brewery and Hop Yard,Mt. Airy, MD,39.3762145,-77.154704,Mt. Airy  MD,,,Mount Airy,Maryland,United States,21771,"Mount Airy, Carroll County, Maryland, United States, 21771",,,,,,,,Mt.AiryMD
234,Harpoon Brewery,Boston, MA,42.3600825,-71.0588801,Boston  MA,,,Boston,Massachusetts,United States,,"Boston, Suffolk County, Massachusetts, United States",,,,,,,,BostonMA
300,Boston Beer Company,Boston, MA,42.3600825,-71.0588801,Boston  MA,,,Boston,Massachusetts,United States,,"Boston, Suffolk County, Massachusetts, United States",,,,,,,,BostonMA
178,Cambridge Brewing Company,Cambridge, MA,42.3736158,-71.1097335,Cambridge  MA,,,Cambridge,Massachusetts,United States,,"Cambridge, Middlesex County, Massachusetts, United States",,,,,,,,CambridgeMA
304,Blue Hills Brewery,Canton, MA,42.1584324,-71.1447732,Canton  MA,,,Canton,Massachusetts,United States,,"Canton, Norfolk County, Massachusetts, United States",,,,,,,,CantonMA
305,Night Shift Brewing,Everett, MA,42.40843,-71.0536625,Everett  MA,,,Everett,Massachusetts,United States,2149,"Everett, Middlesex County, Massachusetts, United States, 02149",,,,,,,,EverettMA
2,Jacks Abby Craft Lagers,Framingham, MA,42.279286,-71.4161565,Framingham MA,,,Framingham,Massachusetts,United States,,"Framingham, Middlesex County, Massachusetts, United States",,,,,,,,FraminghamMA
230,Cape Ann Brewing Company,Gloucester, MA,42.6159285,-70.6619888,Gloucester  MA,,,Gloucester,Massachusetts,United States,,"Gloucester, Ipswich, Essex County, Massachusetts, United States",,,,,,,,GloucesterMA
267,Cape Cod Beer,Hyannis, MA,41.6524911,-70.2881124,Hyannis  MA,,,Barnstable,Massachusetts,United States,2601,"Hyannis, Barnstable, Barnstable County, Massachusetts, United States, 02601",,,,,,,,HyannisMA
123,Ipswich Ale Brewery,Ipswich, MA,42.6791832,-70.8411558,Ipswich  MA,,,Ipswich,Massachusetts,United States,,"Ipswich, Ipswich, Essex County, Massachusetts, United States",,,,,,,,IpswichMA
271,Notch Brewing Company,Ipswich, MA,42.6791832,-70.8411558,Ipswich  MA,,,Ipswich,Massachusetts,United States,,"Ipswich, Ipswich, Essex County, Massachusetts, United States",,,,,,,,IpswichMA
446,Downeast Cider House,Leominster, MA,42.5250906,-71.759794,Leominster  MA,,,Leominster,Massachusetts,United States,,"Leominster, Worcester County, Massachusetts, United States",,,,,,,,LeominsterMA
103,Beer Works Brewery,Lowell, MA,42.6334247,-71.3161718,Lowell  MA,,,Lowell,Massachusetts,United States,,"Lowell, Middlesex County, Massachusetts, United States",,,,,,,,LowellMA
511,Sherwood Forest Brewers,Marlborough, MA,42.3459271,-71.5522874,Marlborough  MA,,,Marlborough,Massachusetts,United States,,"Marlborough, Middlesex County, Massachusetts, United States",,,,,,,,MarlboroughMA
145,Cisco Brewers,Nantucket, MA,41.2834704,-70.099451,Nantucket  MA,,,Nantucket,Massachusetts,United States,,"Nantucket, Nantucket County, Massachusetts, United States",,,,,,,,NantucketMA
495,Newburyport Brewing Company,Newburyport, MA,42.8125913,-70.8772751,Newburyport  MA,,,Newburyport,Massachusetts,United States,,"Newburyport, Essex County, Massachusetts, United States",,,,,,,,NewburyportMA
293,Northampton Brewery,Northamtpon, MA,42.3250896,-72.6412013,Northamtpon  MA,,,Northampton,Massachusetts,United States,,"Northampton, Hampshire County, Massachusetts, United States",,,,,,,,NorthamtponMA
477,Big Elm Brewing,Sheffield, MA,42.1099885,-73.3551436,Sheffield  MA,,,Sheffield,Massachusetts,United States,,"Sheffield, Berkshire County, Massachusetts, United States",,,,,,,,SheffieldMA
278,Berkshire Brewing Company,South Deerfield, MA,42.4773097,-72.6078667,South Deerfield  MA,,,Deerfield,Massachusetts,United States,,"South Deerfield, Deerfield, Franklin County, Massachusetts, United States",,,,,,,,SouthDeerfieldMA
351,Westfield River Brewing Company,Westfield, MA,42.1250929,-72.749538,Westfield  MA,,,Westfield,Massachusetts,United States,1085,"Westfield, Hampden County, Massachusetts, United States, 01085",,,,,,,,WestfieldMA
295,Wachusett Brewing Company,Westminster, MA,42.5459227,-71.9106308,Westminster  MA,,,Westminster,Massachusetts,United States,,"Westminster, Worcester County, Massachusetts, United States",,,,,,,,WestminsterMA
318,Banner Beer Company,Williamsburg, MA,42.3928305,-72.7300929,Williamsburg  MA,,,Williamsburg,Massachusetts,United States,,"Williamsburg, Hampshire County, Massachusetts, United States",,,,,,,,WilliamsburgMA
339,Wormtown Brewery,Worcester, MA,42.2625932,-71.8022934,Worcester  MA,,,Worcester,Massachusetts,United States,,"Worcester, Worcester County, Massachusetts, United States",,,,,,,,WorcesterMA
137,Sietsema Orchards and Cider Mill,Ada, MI,42.960727,-85.4954803,Ada  MI,,,,Michigan,United States,,"Ada Township, Kent County, Michigan, United States",,,,,,,,AdaMI
402,Wolverine State Brewing Company,Ann Arbor, MI,42.2808256,-83.7430378,Ann Arbor  MI,,,Ann Arbor,Michigan,United States,,"Ann Arbor, Washtenaw County, Michigan, United States",,,,,,,,AnnArborMI
541,Arcadia Brewing Company,Battle Creek, MI,42.3211522,-85.1797142,Battle Creek  MI,,,Battle Creek,Michigan,United States,,"Battle Creek, Calhoun County, Michigan, United States",,,,,,,,BattleCreekMI
124,Griffin Claw Brewing Company,Birmingham, MI,42.5467012,-83.2113192,Birmingham  MI,,,Birmingham,Michigan,United States,,"Birmingham, Southfield Township, Oakland County, Michigan, United States",,,,,,,,BirminghamMI
7,Tapistry Brewing,Bridgman, MI,41.9430986,-86.5569659,Bridgman MI,,,Bridgman,Michigan,United States,49106,"Bridgman, Berrien County, Michigan, United States, 49106",,,,,,,,BridgmanMI
121,Cheboygan Brewing Company,Cheboygan, MI,45.6469563,-84.4744795,Cheboygan  MI,,,Cheboygan,Michigan,United States,49721,"Cheboygan, Cheboygan County, Michigan, United States, 49721",,,,,,,,CheboyganMI
13,Perrin Brewing Company,Comstock Park, MI,43.0386368,-85.6700332,Comstock Park  MI,,,Comstock Park,Michigan,United States,,"Comstock Park, Alpine Township, Kent County, Michigan, United States",,,,,,,,ComstockParkMI
72,Atwater Brewery,Detroit, MI,42.331427,-83.0457538,Detroit  MI,,,Detroit,Michigan,United States,,"Detroit, Wayne County, Michigan, United States",,,,,,,,DetroitMI
398,Saugatuck Brewing Company,Douglas, MI,42.6433583,-86.2005933,Douglas  MI,,,Douglas,Michigan,United States,,"Douglas, Saugatuck Township, Allegan County, Michigan, United States",,,,,,,,DouglasMI
253,Frankenmuth Brewery,Frankenmuth, MI,43.331691,-83.7380194,Frankenmuth  MI,,,Frankenmuth,Michigan,United States,,"Frankenmuth, Frankenmuth Township, Saginaw County, Michigan, United States",,,,,,,,FrankenmuthMI
9,The Mitten Brewing Company,Grand Rapids, MI,42.9633599,-85.6680863,Grand Rapids  MI,,,Grand Rapids,Michigan,United States,,"Grand Rapids, Kent County, Michigan, United States",,,,,,,,GrandRapidsMI
10,Brewery Vivant,Grand Rapids, MI,42.9633599,-85.6680863,Grand Rapids  MI,,,Grand Rapids,Michigan,United States,,"Grand Rapids, Kent County, Michigan, United States",,,,,,,,GrandRapidsMI
15,Founders Brewing Company,Grand Rapids, MI,42.9633599,-85.6680863,Grand Rapids  MI,,,Grand Rapids,Michigan,United States,,"Grand Rapids, Kent County, Michigan, United States",,,,,,,,GrandRapidsMI
8,Big Lake Brewing,Holland, MI,42.7875235,-86.1089301,Holland MI,,,Holland,Michigan,United States,49423,"Holland, Ottawa County, Michigan, United States, 49423",,,,,,,,HollandMI
84,Keweenaw Brewing Company,Houghton, MI,47.1211331,-88.5694182,Houghton  MI,,,Houghton,Michigan,United States,49931,"Houghton, Houghton County, Michigan, United States, 49931",,,,,,,,HoughtonMI
396,White Flame Brewing Company,Hudsonville, MI,42.870859,-85.8650358,Hudsonville  MI,,,Hudsonville,Michigan,United States,49426,"Hudsonville, Ottawa County, Michigan, United States, 49426",,,,,,,,HudsonvilleMI
39,Gonzos BiggDogg Brewing,Kalamazoo, MI,42.2917069,-85.5872286,Kalamazoo  MI,,,Kalamazoo,Michigan,United States,,"Kalamazoo, Kalamazoo County, Michigan, United States",,,,,,,,KalamazooMI
76,Bells Brewery,Kalamazoo, MI,42.2917069,-85.5872286,Kalamazoo  MI,,,Kalamazoo,Michigan,United States,,"Kalamazoo, Kalamazoo County, Michigan, United States",,,,,,,,KalamazooMI
12,Blackrocks Brewery,Marquette, MI,46.5475825,-87.3955954,Marquette  MI,,,Marquette,Michigan,United States,,"Marquette, Marquette County, Michigan, United States",,,,,,,,MarquetteMI
95,Blackrocks Brewery,Marquette, MA,46.5524871,-87.3943268,Marquette  MA,1014,North 3rd Street,Marquette,Michigan,United States,49855,"1014, North 3rd Street, Marquette, Marquette County, Michigan, United States, 49855, 3510",,,,,,,,MarquetteMA
260,Mountain Town Brewing Company ,Mount Pleasant, MI,43.5978075,-84.7675139,Mount Pleasant  MI,,,Mount Pleasant,Michigan,United States,48858,"Mount Pleasant, Isabella County, Michigan, United States, 48858",,,,,,,,MountPleasantMI
186,St. Julian Winery,Paw Paw, MI,42.2178171,-85.8911246,Paw Paw  MI,,,Paw Paw,Michigan,United States,49079,"Paw Paw, Paw Paw Township, Van Buren County, Michigan, United States, 49079",,,,,,,,PawPawMI
11,Petoskey Brewing,Petoskey, MI,45.3733428,-84.9553296,Petoskey  MI,,,Petoskey,Michigan,United States,49770,"Petoskey, Emmet County, Michigan, United States, 49770",,,,,,,,PetoskeyMI
59,Latitude 42 Brewing Company,Portage, MI,42.2011538,-85.5800022,Portage  MI,,,Portage,Michigan,United States,,"Portage, Kalamazoo County, Michigan, United States",,,,,,,,PortageMI
229,Rochester Mills Brewing Company,Rochester, MI,42.680588,-83.1338214,Rochester  MI,,,Rochester,Michigan,United States,,"Rochester, Oakland County, Michigan, United States",,,,,,,,RochesterMI
440,MillKing It Productions,Royal Oak, MI,42.4894801,-83.1446485,Royal Oak  MI,,,Royal Oak,Michigan,United States,,"Royal Oak, Oakland County, Michigan, United States",,,,,,,,RoyalOakMI
254,Meckleys Cidery,Somerset Center, MI,42.0511543,-84.4135604,Somerset Center  MI,,,Somerset Center,Michigan,United States,49249,"Somerset Center, Somerset Township, Hillsdale County, Michigan, United States, 49249",,,,,,,,SomersetCenterMI
14,Witchs Hat Brewing Company,South Lyon, MI,42.46059,-83.6516063,South Lyon  MI,,,South Lyon,Michigan,United States,48178,"South Lyon, Green Oak Township, Oakland County, Michigan, United States, 48178",,,,,,,,SouthLyonMI
185,Vander Mill Ciders,Spring Lake, MI,43.0769625,-86.1969971,Spring Lake  MI,,,Spring Lake,Michigan,United States,49456,"Spring Lake, Spring Lake Township, Ottawa County, Michigan, United States, 49456",,,,,,,,SpringLakeMI
338,Uncle Johns Fruit House Winery,St. Johns, MI,43.001143,-84.5591521,St. Johns  MI,,,Saint Johns,Michigan,United States,48879,"Saint Johns, Bingham Township, Clinton County, Michigan, United States, 48879",,,,,,,,St.JohnsMI
85,Brewery Terra Firma,Traverse City, MI,44.7630567,-85.6206317,Traverse City  MI,,,Traverse City,Michigan,United States,,"Traverse City, Peninsula Township, Grand Traverse County, Michigan, United States",,,,,,,,TraverseCityMI
162,Right Brain Brewery,Traverse City, MI,44.7630567,-85.6206317,Traverse City  MI,,,Traverse City,Michigan,United States,,"Traverse City, Peninsula Township, Grand Traverse County, Michigan, United States",,,,,,,,TraverseCityMI
438,The Right Brain Brewery,Traverse City, MI,44.7630567,-85.6206317,Traverse City  MI,,,Traverse City,Michigan,United States,,"Traverse City, Peninsula Township, Grand Traverse County, Michigan, United States",,,,,,,,TraverseCityMI
61,Surly Brewing Company,Brooklyn Center, MN,45.076076,-93.3327283,Brooklyn Center  MN,,,Brooklyn Center,Minnesota,United States,,"Brooklyn Center, Hennepin County, Minnesota, United States",,,,,,,,BrooklynCenterMN
142,Third Street Brewhouse,Cold Spring, MN,45.4536111,-94.4277778,Cold Spring  MN,,,Cold Spring,Minnesota,United States,56320,"Cold Spring, Wakefield Township, Stearns County, Minnesota, United States, 56320",,,,,,,,ColdSpringMN
75,Bent Paddle Brewing Company,Duluth, MN,46.7866719,-92.1004852,Duluth  MN,,,Duluth,Minnesota,United States,,"Duluth, St. Louis County, Minnesota, United States",,,,,,,,DuluthMN
0,NorthGate Brewing ,Minneapolis, MN,44.977753,-93.2650108,Minneapolis MN,,,Minneapolis,Minnesota,United States,,"Minneapolis, Hennepin County, Minnesota, United States",,,,,,,,MinneapolisMN
258,Bauhaus Brew Labs,Minneapolis, MN,44.977753,-93.2650108,Minneapolis  MN,,,Minneapolis,Minnesota,United States,,"Minneapolis, Hennepin County, Minnesota, United States",,,,,,,,MinneapolisMN
277,Indeed Brewing Company,Minneapolis, MN,44.977753,-93.2650108,Minneapolis  MN,,,Minneapolis,Minnesota,United States,,"Minneapolis, Hennepin County, Minnesota, United States",,,,,,,,MinneapolisMN
474,Tonka Beer Company,Minnetonka, MN,44.9211836,-93.4687489,Minnetonka  MN,,,Minnetonka,Minnesota,United States,,"Minnetonka, Hennepin County, Minnesota, United States",,,,,,,,MinnetonkaMN
53,Bent Brewstillery,Roseville, MN,45.0060767,-93.1566107,Roseville  MN,,,Roseville,Minnesota,United States,55113,"Roseville, Ramsey County, Minnesota, United States, 55113",,,,,,,,RosevilleMN
138,Summit Brewing Company,St Paul, MN,44.9537029,-93.0899578,St Paul  MN,,,Saint Paul,Minnesota,United States,,"Saint Paul, Ramsey County, Minnesota, United States",,,,,,,,StPaulMN
58,Summit Brewing Company,St. Paul, MN,44.9537029,-93.0899578,St. Paul  MN,,,Saint Paul,Minnesota,United States,,"Saint Paul, Ramsey County, Minnesota, United States",,,,,,,,St.PaulMN
244,Lift Bridge Brewing Company,Stillwater, MN,45.056004,-92.8088443,Stillwater  MN,,,Stillwater,Minnesota,United States,55082,"Stillwater, Washington County, Minnesota, United States, 55082",,,,,,,,StillwaterMN
444,Big Wood Brewery,Vadnais Heights, MN,45.0574658,-93.0738305,Vadnais Heights  MN,,,Vadnais Heights,Minnesota,United States,,"Vadnais Heights, White Bear Township, Ramsey County, Minnesota, United States",,,,,,,,VadnaisHeightsMN
133,Southern Prohibition Brewing Company,Hattiesburg, MS,31.3271189,-89.2903392,Hattiesburg  MS,,,Hattiesburg,Mississippi,United States,,"Hattiesburg, Forrest County, Mississippi, United States",,,,,,,,HattiesburgMS
245,Lucky Town Brewing Company,Jackson, MS,32.2987573,-90.1848103,Jackson  MS,,,Jackson,Mississippi,United States,,"Jackson, Hinds County, Mississippi, United States",,,,,,,,JacksonMS
314,Piney River Brewing Company,Bucryus, MO,37.3442143,-92.0168233,Bucryus  MO,,,Bucyrus,Missouri,United States,65444,"Bucyrus, Piney Township, Texas County, Missouri, United States, 65444",,,,,,,,BucryusMO
31,Boulevard Brewing Company,Kansas City, MO,39.0997265,-94.5785667,Kansas City  MO,,,Kansas City,Missouri,United States,,"Kansas City, Jackson County, Missouri, United States",,,,,,,,KansasCityMO
87,Kirkwood Station Brewing Company,Kirkwood, MO,38.5833862,-90.406785,Kirkwood  MO,,,Kirkwood,Missouri,United States,63122,"Kirkwood, Bonhomme Township, St. Louis County, Missouri, United States, 63122",,,,,,,,KirkwoodMO
442,OFallon Brewery,OFallon, MO,38.8106075,-90.6998477,OFallon  MO,,,O'Fallon,Missouri,United States,,"O'Fallon, St. Charles County, Missouri, United States",,,,,,,,OFallonMO
60,4 Hands Brewing Company,Saint Louis, MO,38.6270025,-90.1994042,Saint Louis  MO,,,St. Louis,Missouri,United States,,"St. Louis, Missouri, United States",,,,,,,,SaintLouisMO
326,Morgan Street Brewery,Saint Louis, MO,38.6270025,-90.1994042,Saint Louis  MO,,,St. Louis,Missouri,United States,,"St. Louis, Missouri, United States",,,,,,,,SaintLouisMO
428,Schlafly Brewing Company,Saint Louis, MO,38.6270025,-90.1994042,Saint Louis  MO,,,St. Louis,Missouri,United States,,"St. Louis, Missouri, United States",,,,,,,,SaintLouisMO
188,Mothers Brewing,Springfield, MO,37.2089572,-93.2922989,Springfield  MO,,,Springfield,Missouri,United States,,"Springfield, Springfield Township, Greene County, Missouri, United States",,,,,,,,SpringfieldMO
132,Weston Brewing Company,Weston, MO,39.4111092,-94.9016298,Weston  MO,,,Weston,Missouri,United States,64098,"Weston, Weston Township, Platte County, Missouri, United States, 64098",,,,,,,,WestonMO
535,Harvest Moon Brewing Company,Belt, MT,47.387186,-110.9276606,Belt  MT,,,Belt,Montana,United States,59412,"Belt, Cascade County, Montana, United States, 59412",,,,,,,,BeltMT
219,Bozeman Brewing Company,Bozeman, MT,45.6769979,-111.0429339,Bozeman  MT,,,Bozeman,Montana,United States,,"Bozeman, Gallatin County, Montana, United States",,,,,,,,BozemanMT
407,Bitter Root Brewing,Hamilton, MT,46.2471437,-114.1548162,Hamilton  MT,,,Hamilton,Montana,United States,59840,"Hamilton, Ravalli County, Montana, United States, 59840",,,,,,,,HamiltonMT
537,Lewis and Clark Brewing Company,Helena, MT,46.5891452,-112.0391057,Helena  MT,,,Helena,Montana,United States,,"Helena, Lewis and Clark County, Montana, United States",,,,,,,,HelenaMT
409,Tamarack Brewing Company,Lakeside, MT,48.019969,-114.2279084,Lakeside  MT,,,Lakeside,Montana,United States,59922,"Lakeside, Flathead County, Montana, United States, 59922",,,,,,,,LakesideMT
336,Big Sky Brewing Company,Missoula, MT,46.8721284,-113.9940314,Missoula  MT,,,Missoula,Montana,United States,,"Missoula, Missoula County, Montana, United States",,,,,,,,MissoulaMT
510,Kettle House Brewing Company,Missoula, MT,46.8721284,-113.9940314,Missoula  MT,,,Missoula,Montana,United States,,"Missoula, Missoula County, Montana, United States",,,,,,,,MissoulaMT
499,Wildwood Brewing Company,Stevensville, MT,46.5099225,-114.0931588,Stevensville  MT,,,Stevensville,Montana,United States,59870,"Stevensville, Ravalli County, Montana, United States, 59870",,,,,,,,StevensvilleMT
543,Great Northern Brewing Company,Whitefish, MT,48.4106373,-114.3352652,Whitefish  MT,,,Whitefish,Montana,United States,59937,"Whitefish, Flathead County, Montana, United States, 59937",,,,,,,,WhitefishMT
508,Spilker Ales,Cortland, NE,40.5060627,-96.7058484,Cortland  NE,,,Cortland,Nebraska,United States,68331,"Cortland, Highland, Gage County, Nebraska, United States, 68331",,,,,,,,CortlandNE
282,Thunderhead Brewing Company,Kearney, NE,40.6993303,-99.0816784,Kearney  NE,,,Kearney,Nebraska,United States,,"Kearney, Collins, Buffalo County, Nebraska, United States",,,,,,,,KearneyNE
189,Modern Monks Brewery,Lincoln, NE,40.813616,-96.7025955,Lincoln  NE,,,Lincoln,Nebraska,United States,,"Lincoln, Lancaster County, Nebraska, United States",,,,,,,,LincolnNE
380,Blue Blood Brewing Company,Lincoln, NE,40.813616,-96.7025955,Lincoln  NE,,,Lincoln,Nebraska,United States,,"Lincoln, Lancaster County, Nebraska, United States",,,,,,,,LincolnNE
337,Nebraska Brewing Company,Papillion, NE,41.1544432,-96.0422378,Papillion  NE,,,Papillion,Nebraska,United States,,"Papillion, Papillion, Sarpy County, Nebraska, United States",,,,,,,,PapillionNE
233,Joseph James Brewing Company,Henderson, NV,36.0395247,-114.9817213,Henderson  NV,,,Henderson,Nevada,United States,,"Henderson, Clark County, Nevada, United States",,,,,,,,HendersonNV
530,Buckbean Brewing Company,Reno, NV,39.5296329,-119.8138027,Reno  NV,,,Reno,Nevada,United States,,"Reno, Washoe County, Nevada, United States",,,,,,,,RenoNV
109,Woodstock Inn,North Woodstock, NH,44.0324305,-71.6869123,Woodstock  NH,135,Main Street,Woodstock,New Hampshire,United States,3262,"135, Main Street, North Woodstock, Woodstock, Grafton County, New Hampshire, United States, 03262",,,,,,,,WoodstockNH
47,White Birch Brewing,Hooksett, NH,43.0967213,-71.4651283,Hooksett  NH,,,Hooksett,New Hampshire,United States,,"Hooksett, Hooksett, Merrimack County, New Hampshire, United States",,,,,,,,HooksettNH
547,Moat Mountain Smoke House & Brewery,North Conway, NH,44.0536805,-71.1284041,North Conway  NH,,,Conway,New Hampshire,United States,,"North Conway, Conway, Conway, Carroll County, New Hampshire, United States",,,,,,,,NorthConwayNH
222,Carton Brewing Company,Atlantic Highlands, NJ,40.4078864,-74.034306,Atlantic Highlands  NJ,,,Atlantic Highlands,New Jersey,United States,,"Atlantic Highlands, Monmouth County, New Jersey, United States",,,,,,,,AtlanticHighlandsNJ
217,Forgotten Boardwalk,Cherry Hill, NJ,39.926813,-75.0246312,Cherry Hill  NJ,,,Cherry Hill,New Jersey,United States,,"Cherry Hill, Camden County, New Jersey, United States",,,,,,,,CherryHillNJ
281,Bolero Snort Brewery,Ridgefield Park, NJ,40.8570442,-74.0215285,Ridgefield Park  NJ,,,Ridgefield Park,New Jersey,United States,,"Ridgefield Park, Bergen County, New Jersey, United States",,,,,,,,RidgefieldParkNJ
265,Tractor Brewing Company,Albuquerque, NM,35.0843859,-106.650422,Albuquerque  NM,,,Albuquerque,New Mexico,United States,,"Albuquerque, Bernalillo County, New Mexico, United States",,,,,,,,AlbuquerqueNM
332,La Cumbre Brewing Company,Albuquerque, NM,35.0843859,-106.650422,Albuquerque  NM,,,Albuquerque,New Mexico,United States,,"Albuquerque, Bernalillo County, New Mexico, United States",,,,,,,,AlbuquerqueNM
443,Marble Brewery,Albuquerque, NM,35.0843859,-106.650422,Albuquerque  NM,,,Albuquerque,New Mexico,United States,,"Albuquerque, Bernalillo County, New Mexico, United States",,,,,,,,AlbuquerqueNM
392,Santa Fe Brewing Company,Santa Fe, NM,35.6869752,-105.937799,Santa Fe  NM,,,Santa Fe,New Mexico,United States,,"Santa Fe, Santa Fe County, New Mexico, United States",,,,,,,,SantaFeNM
329,The Bronx Brewery,Bronx, NY,40.8447819,-73.8648268,Bronx  NY,,,,New York,United States,,"Bronx, Bronx County, New York, United States",,,,,,,,BronxNY
46,Sixpoint Craft Ales,Brooklyn, NY,40.6781784,-73.9441579,Brooklyn  NY,,,,New York,United States,,"Brooklyn, Kings County, New York, United States",,,,,,,,BrooklynNY
173,Evil Twin Brewing,Brooklyn, NY,40.6781784,-73.9441579,Brooklyn  NY,,,,New York,United States,,"Brooklyn, Kings County, New York, United States",,,,,,,,BrooklynNY
342,KelSo Beer Company,Brooklyn, NY,40.6781784,-73.9441579,Brooklyn  NY,,,,New York,United States,,"Brooklyn, Kings County, New York, United States",,,,,,,,BrooklynNY
437,Brooklyn Brewery,Brooklyn, NY,40.6781784,-73.9441579,Brooklyn  NY,,,,New York,United States,,"Brooklyn, Kings County, New York, United States",,,,,,,,BrooklynNY
226,Chatham Brewing,Chatham, NY,42.3642516,-73.5948391,Chatham  NY,,,Chatham,New York,United States,12037,"Chatham, Columbia County, New York, United States, 12037",,,,,,,,ChathamNY
546,Upstate Brewing Company,Elmira, NY,42.0897965,-76.8077338,Elmira  NY,,,Elmira,New York,United States,,"Elmira, Chemung County, New York, United States",,,,,,,,ElmiraNY
556,Butternuts Beer and Ale,Garrattsville, NY,42.6472968,-75.1718306,Garrattsville  NY,,,Garrattsville,New York,United States,13342,"Garrattsville, New Lisbon, Otsego County, New York, United States, 13342",,,,,,,,GarrattsvilleNY
276,Montauk Brewing Company,Montauk, NY,41.0359353,-71.9545146,Montauk  NY,,,Montauk,New York,United States,11954,"Montauk, East Hampton, Suffolk County, New York, United States, 11954",,,,,,,,MontaukNY
484,The Manhattan Brewing Company,New York, NY,40.7127753,-74.0059728,New York  NY,,,New York,New York,United States,,"New York, New York, United States",,,,,,,,NewYorkNY
525,Bomb Beer Company,New York, NY,40.7127753,-74.0059728,New York  NY,,,New York,New York,United States,,"New York, New York, United States",,,,,,,,NewYorkNY
238,Newburgh Brewing Company,Newburgh, NY,41.5034271,-74.0104178,Newburgh  NY,,,Newburgh,New York,United States,12550,"Newburgh, Orange County, New York, United States, 12550",,,,,,,,NewburghNY
489,Blue Point Brewing Company,Patchogue, NY,40.7659783,-73.019343,Patchogue  NY,,,Patchogue,New York,United States,11772,"Patchogue, Brookhaven, Suffolk County, New York, United States, 11772",,,,,,,,PatchogueNY
538,Dundee Brewing Company,Rochester, NY,43.1565779,-77.6088465,Rochester  NY,,,Rochester,New York,United States,,"Rochester, Monroe County, New York, United States",,,,,,,,RochesterNY
249,Southampton Publick House,Southampton, NY,40.8598656,-72.5678041,Southampton  NY,,,,New York,United States,,"Southampton, Suffolk County, New York, United States",,,,,,,,SouthamptonNY
299,Matt Brewing Company,Utica, NY,43.100903,-75.232664,Utica  NY,,,Utica,New York,United States,,"Utica, Oneida County, New York, United States",,,,,,,,UticaNY
433,French Broad Brewery,Asheville, NC,35.5950581,-82.5514869,Asheville  NC,,,Asheville,North Carolina,United States,,"Asheville, Buncombe County, North Carolina, United States",,,,,,,,AshevilleNC
528,Asheville Brewing Company,Asheville, NC,35.5950581,-82.5514869,Asheville  NC,,,Asheville,North Carolina,United States,,"Asheville, Buncombe County, North Carolina, United States",,,,,,,,AshevilleNC
324,Pisgah Brewing Company,Black Mountain, NC,35.6178951,-82.3212302,Black Mountain  NC,,,Black Mountain,North Carolina,United States,28711,"Black Mountain, Black Mountain, Buncombe County, North Carolina, United States, 28711",,,,,,,,BlackMountainNC
69,Appalachian Mountain Brewery,Boone, NC,36.216795,-81.6745517,Boone  NC,,,Boone,North Carolina,United States,,"Boone, Watauga County, North Carolina, United States",,,,,,,,BooneNC
389,Oskar Blues Brewery,Brevard, NC,35.2334472,-82.7342919,Brevard  NC,,,Brevard,North Carolina,United States,,"Brevard, Brevard, Transylvania County, North Carolina, United States",,,,,,,,BrevardNC
70,Birdsong Brewing Company,Charlotte, NC,35.2270869,-80.8431267,Charlotte  NC,,,Charlotte,North Carolina,United States,,"Charlotte, 1, Charlotte, Mecklenburg County, North Carolina, United States",,,,,,,,CharlotteNC
359,NoDa Brewing Company,Charlotte, NC,35.2270869,-80.8431267,Charlotte  NC,,,Charlotte,North Carolina,United States,,"Charlotte, 1, Charlotte, Mecklenburg County, North Carolina, United States",,,,,,,,CharlotteNC
497,Cans Bar and Canteen,Charlotte, NC,35.2270869,-80.8431267,Charlotte  NC,,,Charlotte,North Carolina,United States,,"Charlotte, 1, Charlotte, Mecklenburg County, North Carolina, United States",,,,,,,,CharlotteNC
347,Fullsteam Brewery,Durham, NC,35.9940329,-78.898619,Durham  NC,,,Durham,North Carolina,United States,,"Durham, Durham County, North Carolina, United States",,,,,,,,DurhamNC
524,Triangle Brewing Company,Durham, NC,35.9940329,-78.898619,Durham  NC,,,Durham,North Carolina,United States,,"Durham, Durham County, North Carolina, United States",,,,,,,,DurhamNC
360,Aviator Brewing Company,Fuquay-Varina, NC,35.5843235,-78.8000128,Fuquay-Varina  NC,,,Fuquay Varina,North Carolina,United States,,"Fuquay Varina, Middle Creek, Wake County, North Carolina, United States",,,,,,,,Fuquay-VarinaNC
540,Mother Earth Brewing Company,Kinston, NC,35.2626635,-77.5816353,Kinston  NC,,,Kinston,North Carolina,United States,,"Kinston, Kinston, Lenoir County, North Carolina, United States",,,,,,,,KinstonNC
445,Howard Brewing Company,Lenoir, NC,35.9140196,-81.5389849,Lenoir  NC,,,Lenoir,North Carolina,United States,,"Lenoir, Caldwell County, North Carolina, United States",,,,,,,,LenoirNC
504,Carolina Beer & Beverage,Mooresville, NC,35.5848596,-80.8100724,Mooresville  NC,,,Mooresville,North Carolina,United States,,"Mooresville, Iredell County, North Carolina, United States",,,,,,,,MooresvilleNC
96,Catawba Valley Brewing Company,Morganton, NC,35.7454071,-81.6848188,Morganton  NC,,,Morganton,North Carolina,United States,28655,"Morganton, Morganton, Burke County, North Carolina, United States, 28655",,,,,,,,MorgantonNC
331,Catawba Brewing Company,Morganton, NC,35.7454071,-81.6848188,Morganton  NC,,,Morganton,North Carolina,United States,28655,"Morganton, Morganton, Burke County, North Carolina, United States, 28655",,,,,,,,MorgantonNC
179,Carolina Brewery,Pittsboro, NC,35.7201463,-79.1772371,Pittsboro  NC,,,Pittsboro,North Carolina,United States,27312,"Pittsboro, Center, Chatham County, North Carolina, United States, 27312",,,,,,,,PittsboroNC
149,Lonerider Brewing Company,Raleigh, NC,35.7795897,-78.6381787,Raleigh  NC,,,Raleigh,North Carolina,United States,,"Raleigh, Wake County, North Carolina, United States",,,,,,,,RaleighNC
180,Frog Level Brewing Company,Waynesville, NC,35.4887145,-82.9887477,Waynesville  NC,,,Waynesville,North Carolina,United States,28786,"Waynesville, Waynesville, Haywood County, North Carolina, United States, 28786",,,,,,,,WaynesvilleNC
335,Fargo Brewing Company,Fargo, ND,46.8771863,-96.7898034,Fargo  ND,,,Fargo,North Dakota,United States,,"Fargo, Cass County, North Dakota, United States",,,,,,,,FargoND
92,Jackie Os Pub & Brewery,Athens, OH,39.3292396,-82.1012554,Athens  OH,,,Athens,Ohio,United States,45701,"Athens, Athens Township, Athens County, Ohio, United States, 45701",,,,,,,,AthensOH
91,Madtree Brewing Company,Cincinnati, OH,39.1031182,-84.5120196,Cincinnati  OH,,,Cincinnati,Ohio,United States,,"Cincinnati, Hamilton County, Ohio, United States",,,,,,,,CincinnatiOH
93,Rhinegeist Brewery,Cincinnati, OH,39.1031182,-84.5120196,Cincinnati  OH,,,Cincinnati,Ohio,United States,,"Cincinnati, Hamilton County, Ohio, United States",,,,,,,,CincinnatiOH
99,Christian Moerlein Brewing Company,Cincinnati, OH,39.1031182,-84.5120196,Cincinnati  OH,,,Cincinnati,Ohio,United States,,"Cincinnati, Hamilton County, Ohio, United States",,,,,,,,CincinnatiOH
434,Angry Orchard Cider Company,Cincinnati, OH,39.1031182,-84.5120196,Cincinnati  OH,,,Cincinnati,Ohio,United States,,"Cincinnati, Hamilton County, Ohio, United States",,,,,,,,CincinnatiOH
147,Platform Beer Company,Cleveland, OH,41.49932,-81.6943605,Cleveland  OH,,,Cleveland,Ohio,United States,,"Cleveland, Cuyahoga County, Ohio, United States",,,,,,,,ClevelandOH
274,Portside Brewery,Cleveland, OH,41.49932,-81.6943605,Cleveland  OH,,,Cleveland,Ohio,United States,,"Cleveland, Cuyahoga County, Ohio, United States",,,,,,,,ClevelandOH
357,Buckeye Brewing,Cleveland, OH,41.49932,-81.6943605,Cleveland  OH,,,Cleveland,Ohio,United States,,"Cleveland, Cuyahoga County, Ohio, United States",,,,,,,,ClevelandOH
105,Four String Brewing Company,Columbus, OH,39.9611755,-82.9987942,Columbus  OH,,,Columbus,Ohio,United States,,"Columbus, Franklin County, Ohio, United States",,,,,,,,ColumbusOH
183,Seventh Son Brewing Company,Columbus, OH,39.9611755,-82.9987942,Columbus  OH,,,Columbus,Ohio,United States,,"Columbus, Franklin County, Ohio, United States",,,,,,,,ColumbusOH
352,Elevator Brewing Company,Columbus, OH,39.9611755,-82.9987942,Columbus  OH,,,Columbus,Ohio,United States,,"Columbus, Franklin County, Ohio, United States",,,,,,,,ColumbusOH
94,Warped Wing Brewing Company,Dayton, OH,39.7589478,-84.1916069,Dayton  OH,,,Dayton,Ohio,United States,,"Dayton, Jefferson Township, Montgomery County, Ohio, United States",,,,,,,,DaytonOH
321,Rivertown Brewing Company,Lockland, OH,39.2292249,-84.4577201,Lockland  OH,,,Lockland,Ohio,United States,45215,"Lockland, Hamilton County, Ohio, United States, 45215",,,,,,,,LocklandOH
224,Fat Heads Brewery,Middleburg Heights, OH,41.3614401,-81.812912,Middleburg Heights  OH,,,Middleburg Heights,Ohio,United States,,"Middleburg Heights, Cuyahoga County, Ohio, United States",,,,,,,,MiddleburgHeightsOH
285,Catawba Island Brewing,Port Clinton, OH,41.5119954,-82.9376919,Port Clinton  OH,,,Port Clinton,Ohio,United States,43452,"Port Clinton, Ottawa County, Ohio, United States, 43452",,,,,,,,PortClintonOH
505,Krebs Brewing Company,Krebs, OK,34.9278748,-95.7158221,Krebs  OK,,,Krebs,Oklahoma,United States,74501,"Krebs, Pittsburg County, Oklahoma, United States, 74501",,,,,,,,KrebsOK
376,RoughTail Brewing Company,Midwest City, OK,35.4495065,-97.3967019,Midwest City  OK,,,Midwest City,Oklahoma,United States,,"Midwest City, Oklahoma County, Oklahoma, United States",,,,,,,,MidwestCityOK
366,Mustang Brewing Company,Mustang, OK,35.384226,-97.7244867,Mustang  OK,,,Mustang,Oklahoma,United States,73064,"Mustang, Southwest Oklahoma City, Canadian County, Oklahoma, United States, 73064",,,,,,,,MustangOK
182,COOP Ale Works,Oklahoma City, OK,35.4675602,-97.5164276,Oklahoma City  OK,,,Oklahoma City,Oklahoma,United States,,"Oklahoma City, Oklahoma County, Oklahoma, United States",,,,,,,,OklahomaCityOK
193,Anthem Brewing Company,Oklahoma City, OK,35.4675602,-97.5164276,Oklahoma City  OK,,,Oklahoma City,Oklahoma,United States,,"Oklahoma City, Oklahoma County, Oklahoma, United States",,,,,,,,OklahomaCityOK
330,Dead Armadillo Craft Brewing,Tulsa, OK,36.1539816,-95.992775,Tulsa  OK,,,Tulsa,Oklahoma,United States,,"Tulsa, Tulsa County, Oklahoma, United States",,,,,,,,TulsaOK
155,Caldera Brewing Company,Ashland, OR,42.1945758,-122.7094767,Ashland  OR,,,Ashland,Oregon,United States,97520,"Ashland, Jackson County, Oregon, United States, 97520",,,,,,,,AshlandOR
206,Fort George Brewery,Astoria, OR,46.1878841,-123.8312534,Astoria  OR,,,Astoria,Oregon,United States,97103,"Astoria, Clatsop County, Oregon, United States, 97103",,,,,,,,AstoriaOR
374,Astoria Brewing Company,Astoria, OR,46.1878841,-123.8312534,Astoria  OR,,,Astoria,Oregon,United States,97103,"Astoria, Clatsop County, Oregon, United States, 97103",,,,,,,,AstoriaOR
194,Goodlife Brewing Co.,Bend, OR,44.0581728,-121.3153096,Bend  OR,,,Bend,Oregon,United States,,"Bend, Deschutes County, Oregon, United States",,,,,,,,BendOR
199,Worthy Brewing Company,Bend, OR,44.0581728,-121.3153096,Bend  OR,,,Bend,Oregon,United States,,"Bend, Deschutes County, Oregon, United States",,,,,,,,BendOR
403,Red Tank Cider Company,Bend, OR,44.0581728,-121.3153096,Bend  OR,,,Bend,Oregon,United States,,"Bend, Deschutes County, Oregon, United States",,,,,,,,BendOR
408,10 Barrel Brewing Company,Bend, OR,44.0581728,-121.3153096,Bend  OR,,,Bend,Oregon,United States,,"Bend, Deschutes County, Oregon, United States",,,,,,,,BendOR
454,Deschutes Brewery,Bend, OR,44.0581728,-121.3153096,Bend  OR,,,Bend,Oregon,United States,,"Bend, Deschutes County, Oregon, United States",,,,,,,,BendOR
464,Good Life Brewing Company,Bend, OR,44.0581728,-121.3153096,Bend  OR,,,Bend,Oregon,United States,,"Bend, Deschutes County, Oregon, United States",,,,,,,,BendOR
154,2 Towns Ciderhouse,Corvallis, OR,44.5645659,-123.2620435,Corvallis  OR,,,Corvallis,Oregon,United States,,"Corvallis, Benton County, Oregon, United States",,,,,,,,CorvallisOR
201,Fearless Brewing Company,Estacada, OR,45.2944367,-122.3338032,Estacada  OR,,,Estacada,Oregon,United States,,"Estacada, Clackamas County, Oregon, United States",,,,,,,,EstacadaOR
150,Oakshire Brewing,Eugene, OR,44.0520691,-123.0867536,Eugene  OR,,,Eugene,Oregon,United States,,"Eugene, Lane County, Oregon, United States",,,,,,,,EugeneOR
422,Blue Dog Mead,Eugene, OR,44.0520691,-123.0867536,Eugene  OR,,,Eugene,Oregon,United States,,"Eugene, Lane County, Oregon, United States",,,,,,,,EugeneOR
436,Southern Oregon Brewing Company,Medford, OR,42.3265152,-122.8755949,Medford  OR,,,Medford,Oregon,United States,,"Medford, Jackson County, Oregon, United States",,,,,,,,MedfordOR
289,Rogue Ales,Newport, OR,44.6367836,-124.0534505,Newport  OR,,,Newport,Oregon,United States,,"Newport, Lincoln County, Oregon, United States",,,,,,,,NewportOR
80,Hopworks Urban Brewery,Portland, OR,45.5122308,-122.6587185,Portland  OR,,,Portland,Oregon,United States,,"Portland, Multnomah County, Oregon, United States",,,,,,,,PortlandOR
116,Base Camp Brewing Co.,Portland, OR,45.5122308,-122.6587185,Portland  OR,,,Portland,Oregon,United States,,"Portland, Multnomah County, Oregon, United States",,,,,,,,PortlandOR
117,Alameda Brewing,Portland, OR,45.5122308,-122.6587185,Portland  OR,,,Portland,Oregon,United States,,"Portland, Multnomah County, Oregon, United States",,,,,,,,PortlandOR
195,Breakside Brewery,Portland, OR,45.5122308,-122.6587185,Portland  OR,,,Portland,Oregon,United States,,"Portland, Multnomah County, Oregon, United States",,,,,,,,PortlandOR
197,Burnside Brewing Co.,Portland, OR,45.5122308,-122.6587185,Portland  OR,,,Portland,Oregon,United States,,"Portland, Multnomah County, Oregon, United States",,,,,,,,PortlandOR
200,Occidental Brewing Company,Portland, OR,45.5122308,-122.6587185,Portland  OR,,,Portland,Oregon,United States,,"Portland, Multnomah County, Oregon, United States",,,,,,,,PortlandOR
296,Widmer Brothers Brewing Company,Portland, OR,45.5122308,-122.6587185,Portland  OR,,,Portland,Oregon,United States,,"Portland, Multnomah County, Oregon, United States",,,,,,,,PortlandOR
387,Natian Brewery,Portland, OR,45.5122308,-122.6587185,Portland  OR,,,Portland,Oregon,United States,,"Portland, Multnomah County, Oregon, United States",,,,,,,,PortlandOR
404,Cascadia Ciderworks United,Portland, OR,45.5122308,-122.6587185,Portland  OR,,,Portland,Oregon,United States,,"Portland, Multnomah County, Oregon, United States",,,,,,,,PortlandOR
418,Coalition Brewing Company,Portland, OR,45.5122308,-122.6587185,Portland  OR,,,Portland,Oregon,United States,,"Portland, Multnomah County, Oregon, United States",,,,,,,,PortlandOR
485,MacTarnahans Brewing Company,Portland, OR,45.5122308,-122.6587185,Portland  OR,,,Portland,Oregon,United States,,"Portland, Multnomah County, Oregon, United States",,,,,,,,PortlandOR
494,Seven Brides Brewery,Silverton, OR,45.0051213,-122.7831455,Silverton  OR,,,Silverton,Oregon,United States,97381,"Silverton, Marion County, Oregon, United States, 97381",,,,,,,,SilvertonOR
153,Three Creeks Brewing,Sisters, OR,44.2909491,-121.5492119,Sisters  OR,,,Sisters,Oregon,United States,97759,"Sisters, Deschutes County, Oregon, United States, 97759",,,,,,,,SistersOR
198,Hop Valley Brewing Company,Springfield, OR,44.0462362,-123.0220289,Springfield  OR,,,Springfield,Oregon,United States,,"Springfield, Lane County, Oregon, United States",,,,,,,,SpringfieldOR
416,Jacks Hard Cider,Biglerville, PA,39.9303715,-77.2480391,Biglerville  PA,,,Biglerville,Pennsylvania,United States,17307,"Biglerville, Adams County, Pennsylvania, United States, 17307",,,,,,,,BiglervillePA
372,Spring House Brewing Company,Conestoga, PA,39.9454909,-76.3379045,Conestoga  PA,,,Conestoga,Pennsylvania,United States,17516,"Conestoga, Conestoga Township, Lancaster County, Pennsylvania, United States, 17516",,,,,,,,ConestogaPA
325,Neshaminy Creek Brewing Company,Croydon, PA,40.0873329,-74.9034996,Croydon  PA,,,Croydon,Pennsylvania,United States,19021,"Croydon, Bristol Township, Bucks County, Pennsylvania, United States, 19021",,,,,,,,CroydonPA
301,Old Forge Brewing Company,Danville, PA,40.96342,-76.6127329,Danville  PA,,,Danville,Pennsylvania,United States,17821,"Danville, Montour County, Pennsylvania, United States, 17821",,,,,,,,DanvillePA
345,Lavery Brewing Company,Erie, PA,42.1292241,-80.085059,Erie  PA,,,Erie,Pennsylvania,United States,,"Erie, Erie County, Pennsylvania, United States",,,,,,,,EriePA
43,Rivertowne Brewing Company,Export, PA,40.4181235,-79.6255989,Export  PA,,,Export,Pennsylvania,United States,15632,"Export, Westmoreland County, Pennsylvania, United States, 15632",,,,,,,,ExportPA
97,Tregs Brewing Company,Hershey, PA,40.2859239,-76.6502468,Hershey  PA,,,Hershey,Pennsylvania,United States,,"Hershey, Derry Township, Dauphin County, Pennsylvania, United States",,,,,,,,HersheyPA
545,Lancaster Brewing Company,Lancaster, PA,40.0378755,-76.3055144,Lancaster  PA,,,Lancaster,Pennsylvania,United States,,"Lancaster, Lancaster County, Pennsylvania, United States",,,,,,,,LancasterPA
164,Round Guys Brewing,Lansdale, PA,40.2414952,-75.2837862,Lansdale  PA,,,Lansdale,Pennsylvania,United States,,"Lansdale, Montgomery County, Pennsylvania, United States",,,,,,,,LansdalePA
151,Fort Pitt Brewing Company,Latrobe, PA,40.3211808,-79.3794811,Latrobe  PA,,,Latrobe,Pennsylvania,United States,15650,"Latrobe, Westmoreland County, Pennsylvania, United States, 15650",,,,,,,,LatrobePA
381,Swashbuckler Brewing Company,Manheim, PA,40.1634279,-76.3949614,Manheim  PA,,,Manheim,Pennsylvania,United States,17545,"Manheim, Lancaster County, Pennsylvania, United States, 17545",,,,,,,,ManheimPA
322,Voodoo Brewery,Meadville, PA,41.6414438,-80.1514484,Meadville  PA,,,Meadville,Pennsylvania,United States,16335,"Meadville, Crawford County, Pennsylvania, United States, 16335",,,,,,,,MeadvillePA
356,Manayunk Brewing Company,Philadelphia, PA,39.9525839,-75.1652215,Philadelphia  PA,,,Philadelphia,Pennsylvania,United States,,"Philadelphia, Philadelphia County, Pennsylvania, United States",,,,,,,,PhiladelphiaPA
488,Dock Street Brewery,Philadelphia, PA,39.9525839,-75.1652215,Philadelphia  PA,,,Philadelphia,Pennsylvania,United States,,"Philadelphia, Philadelphia County, Pennsylvania, United States",,,,,,,,PhiladelphiaPA
163,Sly Fox Brewing Company,Phoenixville, PA,40.1303822,-75.5149128,Phoenixville  PA,,,Phoenixville,Pennsylvania,United States,19460,"Phoenixville, Chester County, Pennsylvania, United States, 19460",,,,,,,,PhoenixvillePA
297,Hop Farm Brewing Company,Pittsburgh, PA,40.4406248,-79.9958864,Pittsburgh  PA,,,Pittsburgh,Pennsylvania,United States,,"Pittsburgh, Allegheny County, Pennsylvania, United States",,,,,,,,PittsburghPA
363,Mikkeller,Pottstown, PA,40.2453741,-75.6496302,Pottstown  PA,,,Pottstown,Pennsylvania,United States,19464,"Pottstown, Montgomery County, Pennsylvania, United States, 19464",,,,,,,,PottstownPA
371,Sly Fox Brewing Company,Pottstown, PA,40.2453741,-75.6496302,Pottstown  PA,,,Pottstown,Pennsylvania,United States,19464,"Pottstown, Montgomery County, Pennsylvania, United States, 19464",,,,,,,,PottstownPA
431,North Country Brewing Company,Slippery Rock, PA,41.0639506,-80.0564468,Slippery Rock  PA,,,Slippery Rock,Pennsylvania,United States,16057,"Slippery Rock, Butler County, Pennsylvania, United States, 16057",,,,,,,,SlipperyRockPA
532,Flat Rock Brewing Company,Smithton, PA,40.1539613,-79.7411535,Smithton  PA,,,Smithton,Pennsylvania,United States,,"Smithton, Westmoreland County, Pennsylvania, United States",,,,,,,,SmithtonPA
129,Straub Brewery,St Marys, PA,41.4273738,-78.5609398,St Marys  PA,,,Saint Marys,Pennsylvania,United States,,"Saint Marys, Elk County, Pennsylvania, United States",,,,,,,,StMarysPA
167,Boxcar Brewing Company,West Chester, PA,39.9606643,-75.6054882,West Chester  PA,,,West Chester,Pennsylvania,United States,,"West Chester, Chester County, Pennsylvania, United States",,,,,,,,WestChesterPA
90,The Lion Brewery,Wilkes-Barre, PA,41.2459149,-75.8813075,Wilkes-Barre  PA,,,Wilkes-Barre,Pennsylvania,United States,,"Wilkes-Barre, Plains Township, Luzerne County, Pennsylvania, United States",,,,,,,,Wilkes-BarrePA
113,Vault Brewing Company,Yardley, PA,40.245664,-74.8459972,Yardley  PA,,,Yardley,Pennsylvania,United States,19067,"Yardley, Lower Makefield Township, Bucks County, Pennsylvania, United States, 19067",,,,,,,,YardleyPA
298,Liquid Hero Brewery,York, PA,39.9625984,-76.727745,York  PA,,,York,Pennsylvania,United States,,"York, York County, Pennsylvania, United States",,,,,,,,YorkPA
101,Coastal Extreme Brewing Company,Newport, RI,41.4901024,-71.3128285,Newport  RI,,,Newport,Rhode Island,United States,,"Newport, Newport County, Rhode Island, United States",,,,,,,,NewportRI
279,Foolproof Brewing Company,Pawtucket, RI,41.878711,-71.3825558,Pawtucket  RI,,,Pawtucket,Rhode Island,United States,,"Pawtucket, Providence County, Rhode Island, United States",,,,,,,,PawtucketRI
143,Narragansett Brewing Company,Providence, RI,41.8239891,-71.4128343,Providence  RI,,,Providence,Rhode Island,United States,,"Providence, Providence County, Rhode Island, United States",,,,,,,,ProvidenceRI
86,Grey Sail Brewing Company,Westerly, RI,41.3775987,-71.8272871,Westerly  RI,,,Westerly,Rhode Island,United States,,"Westerly, Westerly, Washington County, Rhode Island, United States",,,,,,,,WesterlyRI
379,Grey Sail Brewing of Rhode Island,Westerly, RI,41.3775987,-71.8272871,Westerly  RI,,,Westerly,Rhode Island,United States,,"Westerly, Westerly, Washington County, Rhode Island, United States",,,,,,,,WesterlyRI
5,COAST Brewing Company,Charleston, SC,32.7764749,-79.9310512,Charleston SC,,,Charleston,South Carolina,United States,,"Charleston, Charleston County, South Carolina, United States",,,,,,,,CharlestonSC
246,Quest Brewing Company,Greenville, SC,34.8526176,-82.3940104,Greenville  SC,,,Greenville,South Carolina,United States,,"Greenville, Greenville County, South Carolina, United States",,,,,,,,GreenvilleSC
384,Westbrook Brewing Company,Mt. Pleasant, SC,32.8323225,-79.8284258,Mt. Pleasant  SC,,,Mount Pleasant,South Carolina,United States,,"Mount Pleasant, Charleston County, South Carolina, United States",,,,,,,,Mt.PleasantSC
518,New South Brewing Company,Myrtle Beach, SC,33.6890603,-78.8866943,Myrtle Beach  SC,,,Myrtle Beach,South Carolina,United States,,"Myrtle Beach, Horry County, South Carolina, United States",,,,,,,,MyrtleBeachSC
212,Crow Peak Brewing Company,Spearfish, SD,44.4908172,-103.8593697,Spearfish  SD,,,Spearfish,South Dakota,United States,,"Spearfish, North Lawrence, Lawrence County, South Dakota, United States",,,,,,,,SpearfishSD
519,Big River Brewing Company,Chattanooga, TN,35.0456297,-85.3096801,Chattanooga  TN,,,Chattanooga,Tennessee,United States,,"Chattanooga, Hamilton County, Tennessee, United States",,,,,,,,ChattanoogaTN
239,Wiseacre Brewing Company,Memphis, TN,35.1495343,-90.0489801,Memphis  TN,,,Memphis,Tennessee,United States,,"Memphis, Shelby County, Tennessee, United States",,,,,,,,MemphisTN
312,Jackalope Brewing Company,Nashville, TN,36.1626638,-86.7816016,Nashville  TN,,,Nashville,Tennessee,United States,,"Nashville, Davidson County, Tennessee, United States",,,,,,,,NashvilleTN
463,Big Bend Brewing Company,Alpine, TX,30.3584919,-103.6610115,Alpine  TX,,,Alpine,Texas,United States,,"Alpine, Brewster County, Texas, United States",,,,,,,,AlpineTX
77,Blue Owl Brewing,Austin, TX,30.267153,-97.7430608,Austin  TX,,,Austin,Texas,United States,,"Austin, Travis County, Texas, United States",,,,,,,,AustinTX
126,Uncle Billys Brewery and Smokehouse,Austin, TX,30.267153,-97.7430608,Austin  TX,,,Austin,Texas,United States,,"Austin, Travis County, Texas, United States",,,,,,,,AustinTX
136,Hops & Grains Brewing Company,Austin, TX,30.267153,-97.7430608,Austin  TX,,,Austin,Texas,United States,,"Austin, Travis County, Texas, United States",,,,,,,,AustinTX
140,Independence Brewing Company,Austin, TX,30.267153,-97.7430608,Austin  TX,,,Austin,Texas,United States,,"Austin, Travis County, Texas, United States",,,,,,,,AustinTX
184,Oasis Texas Brewing Company,Austin, TX,30.267153,-97.7430608,Austin  TX,,,Austin,Texas,United States,,"Austin, Travis County, Texas, United States",,,,,,,,AustinTX
242,Infamous Brewing Company,Austin, TX,30.267153,-97.7430608,Austin  TX,,,Austin,Texas,United States,,"Austin, Travis County, Texas, United States",,,,,,,,AustinTX
395,Hops & Grain Brewery,Austin, TX,30.267153,-97.7430608,Austin  TX,,,Austin,Texas,United States,,"Austin, Travis County, Texas, United States",,,,,,,,AustinTX
413,Austin Beerworks,Austin, TX,30.267153,-97.7430608,Austin  TX,,,Austin,Texas,United States,,"Austin, Travis County, Texas, United States",,,,,,,,AustinTX
128,Real Ale Brewing Company,Blanco, TX,30.0979862,-98.4214095,Blanco  TX,,,Blanco,Texas,United States,78606,"Blanco, Blanco County, Texas, United States, 78606",,,,,,,,BlancoTX
241,New Republic Brewing Company,College Station, TX,30.627977,-96.3344068,College Station  TX,,,College Station,Texas,United States,,"College Station, Brazos County, Texas, United States",,,,,,,,CollegeStationTX
118,Southern Star Brewing Company,Conroe, TX,30.3118769,-95.4560512,Conroe  TX,,,Conroe,Texas,United States,,"Conroe, Montgomery County, Texas, United States",,,,,,,,ConroeTX
127,Deep Ellum Brewing Company,Dallas, TX,32.7766642,-96.7969879,Dallas  TX,,,Dallas,Texas,United States,,"Dallas, Dallas County, Texas, United States",,,,,,,,DallasTX
287,Four Corners Brewing Company,Dallas, TX,32.7766642,-96.7969879,Dallas  TX,,,Dallas,Texas,United States,,"Dallas, Dallas County, Texas, United States",,,,,,,,DallasTX
426,Armadillo Ale Works,Denton, TX,33.2148412,-97.1330683,Denton  TX,,,Denton,Texas,United States,,"Denton, Denton County, Texas, United States",,,,,,,,DentonTX
38,Twisted X Brewing Company,Dripping Springs, TX,30.1902067,-98.0866781,Dripping Springs  TX,,,Dripping Springs,Texas,United States,,"Dripping Springs, Hays County, Texas, United States",,,,,,,,DrippingSpringsTX
213,Grapevine Craft Brewery,Farmers Branch, TX,32.9265137,-96.8961151,Farmers Branch  TX,,,Farmers Branch,Texas,United States,,"Farmers Branch, Dallas County, Texas, United States",,,,,,,,FarmersBranchTX
161,Martin House Brewing Company,Fort Worth, TX,32.7554883,-97.3307658,Fort Worth  TX,,,Fort Worth,Texas,United States,,"Fort Worth, Tarrant County, Texas, United States",,,,,,,,FortWorthTX
176,Rahr & Sons Brewing Company,Fort Worth, TX,32.7554883,-97.3307658,Fort Worth  TX,,,Fort Worth,Texas,United States,,"Fort Worth, Tarrant County, Texas, United States",,,,,,,,FortWorthTX
187,Pedernales Brewing Company,Fredericksburg, TX,30.2752011,-98.8719843,Fredericksburg  TX,,,Fredericksburg,Texas,United States,78624,"Fredericksburg, Gillespie County, Texas, United States, 78624",,,,,,,,FredericksburgTX
125,Karbach Brewing Company,Houston, TX,29.7604267,-95.3698028,Houston  TX,,,Houston,Texas,United States,,"Houston, Harris County, Texas, United States",,,,,,,,HoustonTX
214,Buffalo Bayou Brewing Company,Houston, TX,29.7604267,-95.3698028,Houston  TX,,,Houston,Texas,United States,,"Houston, Harris County, Texas, United States",,,,,,,,HoustonTX
215,Texian Brewing Co.,Richmond, TX,29.5821811,-95.7607832,Richmond  TX,,,Richmond,Texas,United States,,"Richmond, Fort Bend County, Texas, United States",,,,,,,,RichmondTX
66,Freetail Brewing Company,San Antonio, TX,29.4241219,-98.4936282,San Antonio  TX,,,San Antonio,Texas,United States,,"San Antonio, Bexar County, Texas, United States",,,,,,,,SanAntonioTX
207,Branchline Brewing Company,San Antonio, TX,29.4241219,-98.4936282,San Antonio  TX,,,San Antonio,Texas,United States,,"San Antonio, Bexar County, Texas, United States",,,,,,,,SanAntonioTX
470,Petes Brewing Company,San Antonio, TX,29.4241219,-98.4936282,San Antonio  TX,,,San Antonio,Texas,United States,,"San Antonio, Bexar County, Texas, United States",,,,,,,,SanAntonioTX
29,Cedar Creek Brewery,Seven Points, TX,32.3204226,-96.2130315,Seven Points  TX,,,Seven Points,Texas,United States,,"Seven Points, Henderson County, Texas, United States",,,,,,,,SevenPointsTX
257,South Austin Brewery,South Austin, TX,30.2029974,-97.8067305,South Austin  TX,,,Austin,Texas,United States,,"South Austin, Austin, Travis County, Texas, United States",,,,,,,,SouthAustinTX
364,Bohemian Brewery,Midvale, UT,40.6110589,-111.8999353,Midvale  UT,,,Midvale,Utah,United States,,"Midvale, Salt Lake County, Utah, United States",,,,,,,,MidvaleUT
399,Moab Brewery,Moab, UT,38.5733155,-109.5498395,Moab  UT,,,Moab,Utah,United States,84532,"Moab, Grand County, Utah, United States, 84532",,,,,,,,MoabUT
159,Uinta Brewing Company,Salt Lake City, UT,40.7607793,-111.8910474,Salt Lake City  UT,,,Salt Lake City,Utah,United States,,"Salt Lake City, Salt Lake County, Utah, United States",,,,,,,,SaltLakeCityUT
302,Utah Brewers Cooperative,Salt Lake City, UT,40.7607793,-111.8910474,Salt Lake City  UT,,,Salt Lake City,Utah,United States,,"Salt Lake City, Salt Lake County, Utah, United States",,,,,,,,SaltLakeCityUT
268,Long Trail Brewing Company,Bridgewater Corners, VT,43.5884026,-72.6559307,Bridgewater Corners  VT,,,Bridgewater,Vermont,United States,5035,"Bridgewater Corners, Bridgewater, Windsor County, Vermont, United States, 05035",,,,,,,,BridgewaterCornersVT
328,The Just Beer Project,Burlington, VT,44.4758825,-73.212072,Burlington  VT,,,Burlington,Vermont,United States,,"Burlington, Chittenden County, Vermont, United States",,,,,,,,BurlingtonVT
334,The Traveler Beer Company,Burlington, VT,44.4758825,-73.212072,Burlington  VT,,,Burlington,Vermont,United States,,"Burlington, Chittenden County, Vermont, United States",,,,,,,,BurlingtonVT
41,Lost Nation Brewing,East Fairfield, VT,44.7844926,-72.8584674,East Fairfield  VT,,,Fairfield,Vermont,United States,5448,"East Fairfield, Fairfield, Franklin County, Vermont, United States, 05448",,,,,,,,EastFairfieldVT
275,Otter Creek Brewing,Middlebury, VT,44.0153371,-73.16734,Middlebury  VT,,,Middlebury,Vermont,United States,5753,"Middlebury, Middlebury, Addison County, Vermont, United States, 05753",,,,,,,,MiddleburyVT
501,Woodchuck Hard Cider,Middlebury, VT,44.0153371,-73.16734,Middlebury  VT,,,Middlebury,Vermont,United States,5753,"Middlebury, Middlebury, Addison County, Vermont, United States, 05753",,,,,,,,MiddleburyVT
172,Fiddlehead Brewing Company,Shelburne, VT,44.3806065,-73.227626,Shelburne  VT,,,Shelburne,Vermont,United States,,"Shelburne, Willsboro, Chittenden County, Vermont, United States",,,,,,,,ShelburneVT
303,Magic Hat Brewing Company,South Burlington, VT,44.4669941,-73.1709604,South Burlington  VT,,,South Burlington,Vermont,United States,,"South Burlington, Chittenden County, Vermont, United States",,,,,,,,SouthBurlingtonVT
261,Otter Creek Brewing,Waterbury, VT,44.3378203,-72.7562636,Waterbury  VT,,,,Vermont,United States,,"Waterbury, Washington County, Vermont, United States",,,,,,,,WaterburyVT
272,The Alchemist,Waterbury, VT,44.3378203,-72.7562636,Waterbury  VT,,,,Vermont,United States,,"Waterbury, Washington County, Vermont, United States",,,,,,,,WaterburyVT
344,Wolf Hills Brewing Company,Abingdon, VA,36.7098335,-81.9773482,Abingdon  VA,,,Abingdon,Virginia,United States,,"Abingdon, Washington County, Virginia, United States",,,,,,,,AbingdonVA
382,Blue Mountain Brewery,Afton, VA,38.0323988,-78.8395137,Afton  VA,,,Afton,Virginia,United States,22920,"Afton, Rockfish, Nelson County, Virginia, United States, 22920",,,,,,,,AftonVA
414,Blue Mountain Brewery,Arrington, VA,37.6840306,-78.9011326,Arrington  VA,,,Arrington,Virginia,United States,22922,"Arrington, Lovingston, Nelson County, Virginia, United States, 22922",,,,,,,,ArringtonVA
430,Lost Rhino Brewing Company,Ashburn, VA,39.0437567,-77.4874416,Ashburn  VA,,,Ashburn,Virginia,United States,,"Ashburn, Loudoun County, Virginia, United States",,,,,,,,AshburnVA
122,Center of the Universe Brewing Company,Ashland, VA,37.7590318,-77.4799837,Ashland  VA,,,Ashland,Virginia,United States,23005,"Ashland, Ashland, Hanover County, Virginia, United States, 23005",,,,,,,,AshlandVA
236,Champion Brewing Company,Charlottesville, VA,38.0293059,-78.4766781,Charlottesville  VA,,,Charlottesville,Virginia,United States,,"Charlottesville, Albemarle County, Virginia, United States",,,,,,,,CharlottesvilleVA
273,Three Notchd Brewing Company,Charlottesville, VA,38.0293059,-78.4766781,Charlottesville  VA,,,Charlottesville,Virginia,United States,,"Charlottesville, Albemarle County, Virginia, United States",,,,,,,,CharlottesvilleVA
383,Starr Hill Brewery,Crozet, VA,38.0695815,-78.700575,Crozet  VA,,,Crozet,Virginia,United States,22932,"Crozet, White Hall, Albemarle County, Virginia, United States, 22932",,,,,,,,CrozetVA
455,Sunken City Brewing Company,Hardy, VA,37.2317643,-79.8114761,Hardy  VA,,,Hardy,Virginia,United States,24101,"Hardy, Blue Ridge, Bedford County, Virginia, United States, 24101",,,,,,,,HardyVA
237,Devils Backbone Brewing Company,Lexington, VA,37.7840208,-79.4428157,Lexington  VA,,,Lexington,Virginia,United States,24450,"Lexington, Virginia, United States, 24450",,,,,,,,LexingtonVA
181,Wild Wolf Brewing Company,Nellysford, VA,37.8897544,-78.8733658,Nellysford  VA,,,Nellysford,Virginia,United States,,"Nellysford, Rockfish, Nelson County, Virginia, United States",,,,,,,,NellysfordVA
115,Smartmouth Brewing Company,Norfolk, VA,36.8507689,-76.2858726,Norfolk  VA,,,Norfolk,Virginia,United States,,"Norfolk, Virginia, United States",,,,,,,,NorfolkVA
343,Hardywood Park Craft Brewery,Richmond, VA,37.5407246,-77.4360481,Richmond  VA,,,Richmond,Virginia,United States,,"Richmond, Virginia, United States",,,,,,,,RichmondVA
427,Roanoke Railhouse Brewery,Roanoke, VA,37.2709704,-79.9414266,Roanoke  VA,,,Roanoke,Virginia,United States,,"Roanoke, Virginia, United States",,,,,,,,RoanokeVA
50,Flying Mouse Brewery,Troutville, VA,37.4181897,-79.8747627,Troutville  VA,,,Troutville,Virginia,United States,24175,"Troutville, Amsterdam, Botetourt County, Virginia, United States, 24175",,,,,,,,TroutvilleVA
306,Beach Brewing Company,Virginia Beach, VA,36.8529263,-75.977985,Virginia Beach  VA,,,Virginia Beach,Virginia,United States,,"Virginia Beach, Virginia, United States",,,,,,,,VirginiaBeachVA
390,Orlison Brewing Company,Airway Heights, WA,47.644611,-117.5932727,Airway Heights  WA,,,Airway Heights,Washington,United States,,"Airway Heights, Spokane County, Washington, United States",,,,,,,,AirwayHeightsWA
353,Aslan Brewing Company,Bellingham, WA,48.7519112,-122.4786854,Bellingham  WA,,,Bellingham,Washington,United States,,"Bellingham, Whatcom County, Washington, United States",,,,,,,,BellinghamWA
354,Kulshan Brewery,Bellingham, WA,48.7519112,-122.4786854,Bellingham  WA,,,Bellingham,Washington,United States,,"Bellingham, Whatcom County, Washington, United States",,,,,,,,BellinghamWA
319,Dicks Brewing Company,Centralia, WA,46.7162136,-122.9542972,Centralia  WA,,,Centralia,Washington,United States,,"Centralia, Lewis County, Washington, United States",,,,,,,,CentraliaWA
481,7 Seas Brewing Company,Gig Harbor, WA,47.329264,-122.5801293,Gig Harbor  WA,,,Gig Harbor,Washington,United States,,"Gig Harbor, Pierce County, Washington, United States",,,,,,,,GigHarborWA
367,Airways Brewing Company,Kent, WA,47.3809335,-122.2348432,Kent  WA,,,Kent,Washington,United States,,"Kent, King County, Washington, United States",,,,,,,,KentWA
450,Northwest Brewing Company,Pacific, WA,47.2645452,-122.2501201,Pacific  WA,,,Pacific,Washington,United States,,"Pacific, King County, Washington, United States",,,,,,,,PacificWA
190,Two Beers Brewing Company,Seattle, WA,47.6062095,-122.3320708,Seattle  WA,,,Seattle,Washington,United States,,"Seattle, King County, Washington, United States",,,,,,,,SeattleWA
290,Hales Ales,Seattle, WA,47.6062095,-122.3320708,Seattle  WA,,,Seattle,Washington,United States,,"Seattle, King County, Washington, United States",,,,,,,,SeattleWA
362,Hilliards Beer,Seattle, WA,47.6062095,-122.3320708,Seattle  WA,,,Seattle,Washington,United States,,"Seattle, King County, Washington, United States",,,,,,,,SeattleWA
394,Schilling & Company,Seattle, WA,47.6062095,-122.3320708,Seattle  WA,,,Seattle,Washington,United States,,"Seattle, King County, Washington, United States",,,,,,,,SeattleWA
411,Seattle Cider Company,Seattle, WA,47.6062095,-122.3320708,Seattle  WA,,,Seattle,Washington,United States,,"Seattle, King County, Washington, United States",,,,,,,,SeattleWA
460,Fremont Brewing Company,Seattle, WA,47.6062095,-122.3320708,Seattle  WA,,,Seattle,Washington,United States,,"Seattle, King County, Washington, United States",,,,,,,,SeattleWA
516,Emerald City Beer Company,Seattle, WA,47.6062095,-122.3320708,Seattle  WA,,,Seattle,Washington,United States,,"Seattle, King County, Washington, United States",,,,,,,,SeattleWA
526,Churchkey Can Company,Seattle, WA,47.6062095,-122.3320708,Seattle  WA,,,Seattle,Washington,United States,,"Seattle, King County, Washington, United States",,,,,,,,SeattleWA
544,Pyramid Breweries,Seattle, WA,47.6062095,-122.3320708,Seattle  WA,,,Seattle,Washington,United States,,"Seattle, King County, Washington, United States",,,,,,,,SeattleWA
473,Engine House 9,Tacoma, WA,47.2528768,-122.4442906,Tacoma  WA,,,Tacoma,Washington,United States,,"Tacoma, Pierce County, Washington, United States",,,,,,,,TacomaWA
509,Wingman Brewers,Tacoma, WA,47.2528768,-122.4442906,Tacoma  WA,,,Tacoma,Washington,United States,,"Tacoma, Pierce County, Washington, United States",,,,,,,,TacomaWA
401,Amnesia Brewing Company,Washougal, WA,45.5811365,-122.353892,Washougal  WA,,,Washougal,Washington,United States,,"Washougal, Clark County, Washington, United States",,,,,,,,WashougalWA
170,Everybodys Brewing,White Salmon, WA,45.7276194,-121.4864619,White Salmon  WA,,,White Salmon,Washington,United States,,"White Salmon, Klickitat County, Washington, United States",,,,,,,,WhiteSalmonWA
311,Dirty Bucket Brewing Company,Woodinville, WA,47.7542651,-122.1634581,Woodinville  WA,,,Woodinville,Washington,United States,,"Woodinville, King County, Washington, United States",,,,,,,,WoodinvilleWA
487,Redhook Brewery,Woodinville, WA,47.7542651,-122.1634581,Woodinville  WA,,,Woodinville,Washington,United States,,"Woodinville, King County, Washington, United States",,,,,,,,WoodinvilleWA
483,Bale Breaker Brewing Company,Yakima, WA,46.6020711,-120.5058987,Yakima  WA,,,Yakima,Washington,United States,,"Yakima, Yakima County, Washington, United States",,,,,,,,YakimaWA
156,Greenbrier Valley Brewing Company,Lewisburg, WV,37.8017879,-80.4456303,Lewisburg  WV,,,Lewisburg,West Virginia,United States,24901,"Lewisburg, Central, Greenbrier County, West Virginia, United States, 24901",,,,,,,,LewisburgWV
406,Lazy Monk Brewing,Eau Claire, WI,44.811349,-91.4984941,Eau Claire  WI,,,Eau Claire,Wisconsin,United States,,"Eau Claire, Eau Claire County, Wisconsin, United States",,,,,,,,EauClaireWI
529,Northwoods Brewpub,Eau Claire, WI,44.811349,-91.4984941,Eau Claire  WI,,,Eau Claire,Wisconsin,United States,,"Eau Claire, Eau Claire County, Wisconsin, United States",,,,,,,,EauClaireWI
498,Sprecher Brewing Company,Glendale, WI,43.135288,-87.9356423,Glendale  WI,,,Glendale,Wisconsin,United States,,"Glendale, Milwaukee County, Wisconsin, United States",,,,,,,,GlendaleWI
349,Hinterland Brewery,Green Bay, WI,44.5133188,-88.0132958,Green Bay  WI,,,Green Bay,Wisconsin,United States,,"Green Bay, Brown County, Wisconsin, United States",,,,,,,,GreenBayWI
486,Stillmank Beer Company,Green Bay, WI,44.5133188,-88.0132958,Green Bay  WI,,,Green Bay,Wisconsin,United States,,"Green Bay, Brown County, Wisconsin, United States",,,,,,,,GreenBayWI
146,Angry Minnow,Hayward, WI,46.0130065,-91.4846208,Hayward  WI,,,Hayward,Wisconsin,United States,54843,"Hayward, Hayward, Sawyer County, Wisconsin, United States, 54843",,,,,,,,HaywardWI
542,Angry Minnow Brewing Company,Hayward, WI,46.0130065,-91.4846208,Hayward  WI,,,Hayward,Wisconsin,United States,54843,"Hayward, Hayward, Sawyer County, Wisconsin, United States, 54843",,,,,,,,HaywardWI
228,Geneva Lake Brewing Company,Lake Geneva, WI,42.5916836,-88.4334301,Lake Geneva  WI,,,Lake Geneva,Wisconsin,United States,53147,"Lake Geneva, Walworth County, Wisconsin, United States, 53147",,,,,,,,LakeGenevaWI
73,Ale Asylum,Madison, WI,43.0730517,-89.4012302,Madison  WI,,,Madison,Wisconsin,United States,,"Madison, Dane County, Wisconsin, United States",,,,,,,,MadisonWI
377,Lucette Brewing Company,Menominee, WI,44.8755183,-91.9193422,Menominee  WI,,,Menomonie,Wisconsin,United States,54751,"Menomonie, Dunn County, Wisconsin, United States, 54751",,,,,,,,MenomineeWI
456,Lucette Brewing Company,Menominie, WI,44.8755183,-91.9193422,Menominie  WI,,,Menomonie,Wisconsin,United States,54751,"Menomonie, Dunn County, Wisconsin, United States, 54751",,,,,,,,MenominieWI
192,Capital Brewery,Middleton, WI,43.0972174,-89.5042876,Middleton  WI,,,Middleton,Wisconsin,United States,,"Middleton, Dane County, Wisconsin, United States",,,,,,,,MiddletonWI
120,Horny Goat Brew Pub,Milwaukee, WI,43.0389025,-87.9064736,Milwaukee  WI,,,Milwaukee,Wisconsin,United States,,"Milwaukee, Milwaukee County, Wisconsin, United States",,,,,,,,MilwaukeeWI
284,Milwaukee Brewing Company,Milwaukee, WI,43.0389025,-87.9064736,Milwaukee  WI,,,Milwaukee,Wisconsin,United States,,"Milwaukee, Milwaukee County, Wisconsin, United States",,,,,,,,MilwaukeeWI
134,Minhas Craft Brewery,Monroe, WI,42.6011194,-89.6384532,Monroe  WI,,,Monroe,Wisconsin,United States,53566,"Monroe, Green County, Wisconsin, United States, 53566",,,,,,,,MonroeWI
32,James Page Brewing Company,Stevens Point, WI,44.5235792,-89.574563,Stevens Point  WI,,,Stevens Point,Wisconsin,United States,,"Stevens Point, Portage County, Wisconsin, United States",,,,,,,,StevensPointWI
131,Stevens Point Brewery,Stevens Point, WI,44.5235792,-89.574563,Stevens Point  WI,,,Stevens Point,Wisconsin,United States,,"Stevens Point, Portage County, Wisconsin, United States",,,,,,,,StevensPointWI
425,Ciderboys,Stevens Point, WI,44.5235792,-89.574563,Stevens Point  WI,,,Stevens Point,Wisconsin,United States,,"Stevens Point, Portage County, Wisconsin, United States",,,,,,,,StevensPointWI
211,Wisconsin Brewing Company,Verona, WI,42.990831,-89.5331773,Verona  WI,,,Verona,Wisconsin,United States,53593,"Verona, Verona, Dane County, Wisconsin, United States, 53593",,,,,,,,VeronaWI
554,Daves Brewfarm,Wilson, WI,44.9535753,-92.1735178,Wilson  WI,,,Wilson,Wisconsin,United States,54027,"Wilson, St. Croix County, Wisconsin, United States, 54027",,,,,,,,WilsonWI
191,Snake River Brewing Company,Jackson, WY,43.4799291,-110.7624282,Jackson  WY,,,Jackson,Wyoming,United States,,"Jackson, Teton County, Wyoming, United States",,,,,,,,JacksonWY
550,Wind River Brewing Company,Pinedale, WY,42.8678809,-109.8633501,Pinedale  WY,,,Pinedale,Wyoming,United States,82941,"Pinedale, Sublette County, Wyoming, United States, 82941",,,,,,,,PinedaleWY
79,Black Tooth Brewing Company,Sheridan, WY,44.7971939,-106.9561791,Sheridan  WY,,,Sheridan,Wyoming,United States,82801,"Sheridan, Sheridan County, Wyoming, United States, 82801",,,,,,,,SheridanWY
457,The Black Tooth Brewing Company,Sheridan, WY,44.7971939,-106.9561791,Sheridan  WY,,,Sheridan,Wyoming,United States,82801,"Sheridan, Sheridan County, Wyoming, United States, 82801",,,,,,,,SheridanWY